{
"type": "FeatureCollection",
"name": "lbf_cwa",
"crs": { "type": "name", "properties": { "name": "urn:ogc:def:crs:OGC:1.3:CRS84" } },
"features": [
{ "type": "Feature", "properties": { "OBJECTID": 63, "CWA": "LBF", "WFO": "LBF", "LON": -100.71204368163001, "LAT": 41.875527168410002, "REGION": "CR", "FULLSTAID": "KLBF", "CITYSTATE": "North Platte NE", "CITY": "North Platte", "STATE": "Nebraska", "ST": "NE" }, "geometry": { "type": "Polygon", "coordinates": [ [ [ -102.642898559920582, 42.999912261741542 ], [ -102.626594542803844, 42.999813080009687 ], [ -102.551300049157931, 42.999813080009687 ], [ -102.53219604501146, 42.999713898277832 ], [ -102.500396728825933, 42.999813080009687 ], [ -102.4950942990626, 42.99961090072253 ], [ -102.486595154442796, 42.99961090072253 ], [ -102.483894348245542, 42.999713898277832 ], [ -102.47149658230137, 42.99961090072253 ], [ -102.375000000349701, 42.99961090072253 ], [ -102.369598388854513, 42.999511718990675 ], [ -102.362197875831271, 42.999511718990675 ], [ -102.358795165864194, 42.99961090072253 ], [ -102.353599548580291, 42.99961090072253 ], [ -102.333892822395796, 42.99941253725882 ], [ -102.268798827903538, 42.99941253725882 ], [ -102.250000000599528, 42.999511718990675 ], [ -102.230194091783858, 42.99941253725882 ], [ -102.214797974446924, 42.99941253725882 ], [ -102.158996582026589, 42.999313353728326 ], [ -102.135993958354447, 42.999214171996471 ], [ -102.125396729575357, 42.99921035797172 ], [ -102.101997375378517, 42.999313353728326 ], [ -102.082397460774132, 42.999111176239865 ], [ -102.076797484915971, 42.999313353728326 ], [ -102.06179809630504, 42.999313353728326 ], [ -102.042594910426715, 42.999214171996471 ], [ -102.021995544158983, 42.999313353728326 ], [ -102.000396728925864, 42.999313353728326 ], [ -101.994598388704617, 42.999214171996471 ], [ -101.941497803380912, 42.99921035797172 ], [ -101.909194945989952, 42.999313353728326 ], [ -101.883094788293818, 42.999313353728326 ], [ -101.875396729175691, 42.99941253725882 ], [ -101.862594603757941, 42.99941253725882 ], [ -101.849998474350059, 42.999313353728326 ], [ -101.812393188095143, 42.998512268226648 ], [ -101.808799745411875, 42.998413085595473 ], [ -101.800399779825966, 42.998313903863618 ], [ -101.793395996428046, 42.998111724576461 ], [ -101.779098511586994, 42.997913361112751 ], [ -101.775993346815483, 42.997810363557505 ], [ -101.760795592942202, 42.997512816563301 ], [ -101.749694823856998, 42.997112273812434 ], [ -101.742500305044985, 42.997013092080579 ], [ -101.73869323740297, 42.997013092080579 ], [ -101.713493346940368, 42.996612549329768 ], [ -101.63349914556909, 42.996311188310756 ], [ -101.625396728775968, 42.996212005679581 ], [ -101.584197998039144, 42.996612549329768 ], [ -101.578498840449072, 42.996711731061566 ], [ -101.569892883349837, 42.996810912793421 ], [ -101.559295654570747, 42.996810912793421 ], [ -101.528495789149304, 42.997013092080579 ], [ -101.514198303408932, 42.997013092080579 ], [ -101.500396729025795, 42.997112273812434 ], [ -101.495597839568632, 42.997112273812434 ], [ -101.478393555218361, 42.996913910348724 ], [ -101.447998046572536, 42.997112273812434 ], [ -101.435897826723306, 42.997112273812434 ], [ -101.425895691033304, 42.997211456443608 ], [ -101.375793457102304, 42.997413634831446 ], [ -101.351997375078781, 42.997413634831446 ], [ -101.336692811424086, 42.997512816563301 ], [ -101.265800475811261, 42.997612000093795 ], [ -101.249999999900012, 42.99771118182565 ], [ -101.244400024041852, 42.99771118182565 ], [ -101.2405929572991, 42.997612000093795 ], [ -101.237998961782637, 42.997612000093795 ], [ -101.232894897281653, 42.997913361112751 ], [ -101.043197631765281, 42.997913361112751 ], [ -101.022994995122872, 42.99771118182565 ], [ -101.005798339721593, 42.997612000093795 ], [ -101.000396729125725, 42.997512816563301 ], [ -100.96819305436594, 42.997913361112751 ], [ -100.964195251309775, 42.997913361112751 ], [ -100.958396911987847, 42.997810363557505 ], [ -100.934997559589647, 42.997810363557505 ], [ -100.905494690127796, 42.997913361112751 ], [ -100.888099670363488, 42.997913361112751 ], [ -100.875396729375552, 42.997810363557505 ], [ -100.867500304995019, 42.998313903863618 ], [ -100.854896544839619, 42.998313903863618 ], [ -100.847595215346871, 42.998210907207636 ], [ -100.804397583081936, 42.998210907207636 ], [ -100.793098451432343, 42.998111724576461 ], [ -100.788200378444685, 42.998111724576461 ], [ -100.774696350156376, 42.998210907207636 ], [ -100.765296937403718, 42.998210907207636 ], [ -100.74969482405686, 42.998313903863618 ], [ -100.720893860163471, 42.998210907207636 ], [ -100.679496765063618, 42.998210907207636 ], [ -100.671195983907523, 42.998111724576461 ], [ -100.63169860770455, 42.998111724576461 ], [ -100.626197815376827, 42.998512268226648 ], [ -100.61029815683446, 42.998512268226648 ], [ -100.594596863554386, 42.998611449958503 ], [ -100.572494507115778, 42.998512268226648 ], [ -100.564399719271591, 42.998512268226648 ], [ -100.555694580440502, 42.998611449958503 ], [ -100.553092956874423, 42.998710631690358 ], [ -100.543998718266209, 42.99881362924566 ], [ -100.534393311302267, 42.99901199270937 ], [ -100.500396729225656, 42.99901199270937 ], [ -100.496894835728028, 42.99921035797172 ], [ -100.490196228273305, 42.999111176239865 ], [ -100.486099242585965, 42.999313353728326 ], [ -100.482597350886977, 42.99921035797172 ], [ -100.47949981686304, 42.999313353728326 ], [ -100.476493834722646, 42.999111176239865 ], [ -100.473098756402464, 42.999313353728326 ], [ -100.452598571866588, 42.999111176239865 ], [ -100.431594848823181, 42.999111176239865 ], [ -100.39589691221272, 42.998912810977515 ], [ -100.385093689222344, 42.998912810977515 ], [ -100.375396728576106, 42.99881362924566 ], [ -100.35489654493955, 42.998710631690358 ], [ -100.315795898362012, 42.998710631690358 ], [ -100.312995911332223, 42.998611449958503 ], [ -100.309097290007912, 42.998710631690358 ], [ -100.29709625189048, 42.998710631690358 ], [ -100.282798767049428, 42.99881362924566 ], [ -100.277297973822385, 42.998710631690358 ], [ -100.273994445587164, 42.998611449958503 ], [ -100.269493103124148, 42.998611449958503 ], [ -100.250396728825933, 42.998512268226648 ], [ -100.233993529977397, 42.998710631690358 ], [ -100.217697145406873, 42.998710631690358 ], [ -100.198394775098734, 42.998111724576461 ], [ -100.196296691838825, 42.998512268226648 ], [ -100.185394287116594, 42.998512268226648 ], [ -100.151100158945155, 42.998413085595473 ], [ -100.128295897837404, 42.998710631690358 ], [ -100.093894958085798, 42.998710631690358 ], [ -100.068199158064658, 42.998512268226648 ], [ -100.034393311402141, 42.998413085595473 ], [ -100.004798889157371, 42.998413085595473 ], [ -100.00129699655912, 42.998313903863618 ], [ -99.950798034801437, 42.998313903863618 ], [ -99.918395996577942, 42.998012542844606 ], [ -99.913497925388924, 42.998012542844606 ], [ -99.904197692569426, 42.998111724576461 ], [ -99.867294311882972, 42.998111724576461 ], [ -99.865394592086716, 42.998012542844606 ], [ -99.860694885260727, 42.997913361112751 ], [ -99.848999023086435, 42.998210907207636 ], [ -99.839096069128232, 42.998012542844606 ], [ -99.822296143352276, 42.998012542844606 ], [ -99.809394836202671, 42.998210907207636 ], [ -99.80339813341709, 42.998111724576461 ], [ -99.79969787555649, 42.998012542844606 ], [ -99.788398743007576, 42.998012542844606 ], [ -99.777496338285346, 42.998111724576461 ], [ -99.770797729031926, 42.998111724576461 ], [ -99.767700195007933, 42.998012542844606 ], [ -99.750396728925864, 42.998012542844606 ], [ -99.747299194002551, 42.997913361112751 ], [ -99.70939636255207, 42.997913361112751 ], [ -99.70529937686473, 42.998012542844606 ], [ -99.700294494994921, 42.998012542844606 ], [ -99.690597534348683, 42.997913361112751 ], [ -99.67689514259672, 42.997810363557505 ], [ -99.669998168980271, 42.997913361112751 ], [ -99.624794006238346, 42.997913361112751 ], [ -99.577796936179652, 42.998012542844606 ], [ -99.569198608029296, 42.998012542844606 ], [ -99.554496766412626, 42.998111724576461 ], [ -99.549598694324231, 42.998012542844606 ], [ -99.534599303914717, 42.998012542844606 ], [ -99.528694153012736, 42.998012542844606 ], [ -99.513496399139456, 42.997913361112751 ], [ -99.500396729425461, 42.997913361112751 ], [ -99.49429321326113, 42.998111724576461 ], [ -99.474494934293773, 42.998111724576461 ], [ -99.47159576373349, 42.998012542844606 ], [ -99.405097960802209, 42.998012542844606 ], [ -99.397499084315257, 42.998111724576461 ], [ -99.394897460749178, 42.998111724576461 ], [ -99.392097472820069, 42.998012542844606 ], [ -99.383895874295149, 42.998012542844606 ], [ -99.376197815176965, 42.998111724576461 ], [ -99.36419677705959, 42.998111724576461 ], [ -99.355499268076699, 42.998210907207636 ], [ -99.347099304289429, 42.998210907207636 ], [ -99.341293335119303, 42.998111724576461 ], [ -99.287994385432512, 42.998111724576461 ], [ -99.272796631559288, 42.998210907207636 ], [ -99.254394531182641, 42.998210907207636 ], [ -99.250396729025795, 42.998111724576461 ], [ -99.238800048583357, 42.998313903863618 ], [ -99.227798462129272, 42.998313903863618 ], [ -99.216194152737899, 42.998210907207636 ], [ -99.195198060442124, 42.998111724576461 ], [ -99.177993774293213, 42.998313903863618 ], [ -99.163993836446366, 42.998512268226648 ], [ -99.161293030249112, 42.998413085595473 ], [ -99.156997681098062, 42.998413085595473 ], [ -99.151100159145017, 42.998313903863618 ], [ -99.145896912012859, 42.998413085595473 ], [ -99.138999939295729, 42.998413085595473 ], [ -99.135993958054712, 42.998313903863618 ], [ -99.125396729275622, 42.998111724576461 ], [ -99.116493225182182, 42.998210907207636 ], [ -99.098396300748618, 42.998210907207636 ], [ -99.080596924208635, 42.998313903863618 ], [ -99.077095033409023, 42.998313903863618 ], [ -99.064094542728924, 42.998111724576461 ], [ -99.061096191336105, 42.998313903863618 ], [ -99.000694274720956, 42.998313903863618 ], [ -98.990997314074775, 42.998413085595473 ], [ -98.982093810880656, 42.998313903863618 ], [ -98.943099975883172, 42.998313903863618 ], [ -98.935997008954757, 42.998210907207636 ], [ -98.918693541973369, 42.998210907207636 ], [ -98.903099060273405, 42.998313903863618 ], [ -98.899894713769982, 42.998111724576461 ], [ -98.885299682834045, 42.998210907207636 ], [ -98.860595702829414, 42.998210907207636 ], [ -98.823997498086044, 42.998313903863618 ], [ -98.820999145793905, 42.998210907207636 ], [ -98.802597046316578, 42.998313903863618 ], [ -98.785697937010127, 42.998111724576461 ], [ -98.763793944934548, 42.998313903863618 ], [ -98.703292846587544, 42.998313903863618 ], [ -98.691795348776282, 42.998512268226648 ], [ -98.614295959390972, 42.998512268226648 ], [ -98.604194641069796, 42.998413085595473 ], [ -98.585296631134611, 42.998413085595473 ], [ -98.568893433185337, 42.998512268226648 ], [ -98.566093445256286, 42.998512268226648 ], [ -98.562599183405553, 42.998413085595473 ], [ -98.531898498816645, 42.998413085595473 ], [ -98.505897521953045, 42.998512268226648 ], [ -98.500999450764027, 42.998611449958503 ], [ -98.498497008929803, 42.999313353728326 ], [ -98.497093201390101, 42.9925117487183 ], [ -98.495300293173955, 42.987411499141444 ], [ -98.490493773868536, 42.977912902858236 ], [ -98.485694885310693, 42.971710204962051 ], [ -98.483398438587017, 42.96891403195707 ], [ -98.480796814121618, 42.965812683008949 ], [ -98.478897095224738, 42.963512421361202 ], [ -98.473396301098376, 42.955612182955917 ], [ -98.470092772863154, 42.951213837148941 ], [ -98.468696594272387, 42.949314117352685 ], [ -98.466995238839161, 42.947311400900503 ], [ -98.462394713745027, 42.944812774889726 ], [ -98.458496094219356, 42.943412781374832 ], [ -98.452194214591316, 42.938411712630511 ], [ -98.448295593267005, 42.9364128111024 ], [ -98.446800232045064, 42.934310912918363 ], [ -98.445793152332101, 42.930713654411647 ], [ -98.44409942584781, 42.929210663341507 ], [ -98.438499450888912, 42.928310394309278 ], [ -98.434394836252636, 42.92931365999749 ], [ -98.431999206897842, 42.930912017875357 ], [ -98.427200317440679, 42.932010651270616 ], [ -98.421897888576666, 42.932010651270616 ], [ -98.417495727845505, 42.930511475124547 ], [ -98.412193298082229, 42.928112029946305 ], [ -98.409797667828059, 42.926811218163266 ], [ -98.407699584568149, 42.925712584768007 ], [ -98.399299622579463, 42.922512054088088 ], [ -98.395294188775779, 42.921211243204368 ], [ -98.386398315429858, 42.918411255275259 ], [ -98.375396728975829, 42.913112640436054 ], [ -98.37310028135289, 42.912513733322214 ], [ -98.362098693999485, 42.908813477260196 ], [ -98.357192992962212, 42.907211303558881 ], [ -98.351997374778989, 42.90521240203077 ], [ -98.347297667953001, 42.903213501402035 ], [ -98.34309387158487, 42.901210784949797 ], [ -98.337493895726652, 42.897312163625486 ], [ -98.335594176829773, 42.895313262996751 ], [ -98.334297179970861, 42.893013000449685 ], [ -98.332794188900664, 42.890811919634416 ], [ -98.32969665487667, 42.888412476254814 ], [ -98.324394226012657, 42.886112212808428 ], [ -98.319892884449018, 42.884712219293533 ], [ -98.314498901003446, 42.883510590141668 ], [ -98.312194824431572, 42.883113861415609 ], [ -98.309700012445603, 42.88181304873325 ], [ -98.309799194177458, 42.875011443723224 ], [ -98.310295106433955, 42.869911194146368 ], [ -98.310295106433955, 42.861812592277374 ], [ -98.310195922903461, 42.843112945805842 ], [ -98.310195922903461, 42.82791137700849 ], [ -98.310096741171606, 42.824211120946529 ], [ -98.310295106433955, 42.81621169991007 ], [ -98.310295106433955, 42.809711455919 ], [ -98.310195922903461, 42.801712035781861 ], [ -98.310195922903461, 42.784511566355775 ], [ -98.305099487351413, 42.78461074808763 ], [ -98.305099487351413, 42.780612945930784 ], [ -98.305198669083268, 42.760711670307387 ], [ -98.305198669083268, 42.73371124267976 ], [ -98.305297851714442, 42.710212707650385 ], [ -98.305297851714442, 42.704711914423342 ], [ -98.305397034345617, 42.690513611314145 ], [ -98.305198669083268, 42.683311461754613 ], [ -98.305099487351413, 42.668811797626404 ], [ -98.305099487351413, 42.654113770034485 ], [ -98.305198669083268, 42.648113251425457 ], [ -98.305198669083268, 42.639812469370042 ], [ -98.305099487351413, 42.627513885157725 ], [ -98.305297851714442, 42.625312805241833 ], [ -98.305297851714442, 42.621810912643582 ], [ -98.305496216077472, 42.613811493405763 ], [ -98.305496216077472, 42.610912322845479 ], [ -98.305397034345617, 42.602413177326298 ], [ -98.305397034345617, 42.595512389685098 ], [ -98.305198669083268, 42.582210540683946 ], [ -98.305198669083268, 42.567413329561589 ], [ -98.305297851714442, 42.561813353703371 ], [ -98.305397034345617, 42.552913666332699 ], [ -98.305297851714442, 42.545513153309457 ], [ -98.305397034345617, 42.535511016720079 ], [ -98.305397034345617, 42.503013610789537 ], [ -98.305198669083268, 42.499610900822461 ], [ -98.305198669083268, 42.49571228039747 ], [ -98.305297851714442, 42.478713989359164 ], [ -98.305297851714442, 42.473312377863977 ], [ -98.305198669083268, 42.464813232344852 ], [ -98.305297851714442, 42.451412200712525 ], [ -98.305297851714442, 42.445510863835352 ], [ -98.305397034345617, 42.437011719215548 ], [ -98.300094604582284, 42.436912536584373 ], [ -98.300094604582284, 42.407913208327955 ], [ -98.300193787213459, 42.394012451313642 ], [ -98.300292968945314, 42.390411376983536 ], [ -98.300292968945314, 42.378913879172217 ], [ -98.300399781424744, 42.375011443823155 ], [ -98.300498962257279, 42.364513396775919 ], [ -98.300498962257279, 42.32091140683599 ], [ -98.300598144888454, 42.306510925339012 ], [ -98.300498962257279, 42.303012847664831 ], [ -98.300498962257279, 42.283611298322796 ], [ -98.300399781424744, 42.277713776369751 ], [ -98.300498962257279, 42.270011902327497 ], [ -98.300498962257279, 42.175811767998766 ], [ -98.300399781424744, 42.161411284703092 ], [ -98.300498962257279, 42.153911590847315 ], [ -98.300498962257279, 42.139411925819786 ], [ -98.300399781424744, 42.133712769129033 ], [ -98.300399781424744, 42.125011444322752 ], [ -98.300292968945314, 42.118713378719519 ], [ -98.300292968945314, 42.113910675237548 ], [ -98.300399781424744, 42.109512329430515 ], [ -98.300399781424744, 42.088813782330249 ], [ -98.295394896856976, 42.088813782330249 ], [ -98.295394896856976, 42.074413299933894 ], [ -98.295494080387471, 42.058311462104371 ], [ -98.295494080387471, 42.030910491725876 ], [ -98.295593262119326, 42.023113250875895 ], [ -98.295593262119326, 42.016410827597667 ], [ -98.295494080387471, 42.001010895336606 ], [ -98.295799255431234, 41.987510681073104 ], [ -98.295700072800059, 41.973812103345949 ], [ -98.295593262119326, 41.970211029015843 ], [ -98.295593262119326, 41.944713593357676 ], [ -98.295097350762092, 41.915313720551808 ], [ -98.295593262119326, 41.909111022655622 ], [ -98.295593262119326, 41.900413512773468 ], [ -98.295700072800059, 41.885810851989277 ], [ -98.295700072800059, 41.875011443923029 ], [ -98.295898438062409, 41.82811355559619 ], [ -98.295898438062409, 41.81381225583101 ], [ -98.295997619794264, 41.799312591702801 ], [ -98.295799255431234, 41.770214080815208 ], [ -98.295799255431234, 41.741313934290702 ], [ -98.299499512392572, 41.741210936735399 ], [ -98.325492859407916, 41.741210936735399 ], [ -98.332298279342069, 41.741111755003544 ], [ -98.3491973877492, 41.741111755003544 ], [ -98.354598999244388, 41.741210936735399 ], [ -98.358894348395438, 41.741111755003544 ], [ -98.375396728975829, 41.741111755003544 ], [ -98.386398315429858, 41.741012573271689 ], [ -98.406196594397272, 41.741012573271689 ], [ -98.418899536284528, 41.740810393984532 ], [ -98.434898376558806, 41.740810393984532 ], [ -98.445098878410477, 41.740711212252677 ], [ -98.469093322998447, 41.740711212252677 ], [ -98.48209381098053, 41.740612029621502 ], [ -98.488197327144917, 41.740612029621502 ], [ -98.495994567994899, 41.740512847889647 ], [ -98.500396728726002, 41.740512847889647 ], [ -98.503799437793759, 41.740612029621502 ], [ -98.530593872109478, 41.740612029621502 ], [ -98.539497375303597, 41.740512847889647 ], [ -98.547294617052899, 41.740512847889647 ], [ -98.559997558940154, 41.740413666157792 ], [ -98.578697205411686, 41.740413666157792 ], [ -98.585395812866409, 41.740310668602547 ], [ -98.591094971355801, 41.740413666157792 ], [ -98.599899291918746, 41.740413666157792 ], [ -98.625396729375552, 41.740512847889647 ], [ -98.662498474425036, 41.740512847889647 ], [ -98.694496154973535, 41.740413666157792 ], [ -98.746498107801415, 41.740413666157792 ], [ -98.749397278361698, 41.740512847889647 ], [ -98.75219726629075, 41.740413666157792 ], [ -98.829399109581232, 41.740413666157792 ], [ -98.837196350431213, 41.740512847889647 ], [ -98.846397399720161, 41.740512847889647 ], [ -98.865798949961516, 41.740413666157792 ], [ -98.869697571285826, 41.740512847889647 ], [ -98.875297546244724, 41.740413666157792 ], [ -98.990196228573041, 41.740413666157792 ], [ -98.995094298862739, 41.740512847889647 ], [ -99.032997131212596, 41.740512847889647 ], [ -99.040298463403303, 41.740413666157792 ], [ -99.048294066817675, 41.740512847889647 ], [ -99.054199220417672, 41.740413666157792 ], [ -99.058494567770026, 41.740310668602547 ], [ -99.062698364138157, 41.740413666157792 ], [ -99.067993164053235, 41.740512847889647 ], [ -99.07829284673744, 41.740512847889647 ], [ -99.087493896026444, 41.740612029621502 ], [ -99.097396850883911, 41.740413666157792 ], [ -99.10630035407803, 41.740512847889647 ], [ -99.111694335724962, 41.740413666157792 ], [ -99.115997313824948, 41.740612029621502 ], [ -99.125495911007476, 41.740512847889647 ], [ -99.135498047596798, 41.740512847889647 ], [ -99.139595032384818, 41.740612029621502 ], [ -99.193199158014693, 41.740612029621502 ], [ -99.202194213991731, 41.740512847889647 ], [ -99.212295532312908, 41.740211486870692 ], [ -99.212097167949878, 41.736713409196511 ], [ -99.212097167949878, 41.726013183761495 ], [ -99.212196350581053, 41.711914062384096 ], [ -99.212097167949878, 41.703212737577815 ], [ -99.212097167949878, 41.697711945250148 ], [ -99.211898803586905, 41.684413910273804 ], [ -99.21199798621808, 41.67541122444851 ], [ -99.212196350581053, 41.668510436807253 ], [ -99.212097167949878, 41.659713745193244 ], [ -99.212097167949878, 41.629211425866686 ], [ -99.21199798621808, 41.624713898327798 ], [ -99.212196350581053, 41.610813141313486 ], [ -99.212196350581053, 41.596511840648986 ], [ -99.212097167949878, 41.592811583687705 ], [ -99.212196350581053, 41.581813812157748 ], [ -99.212196350581053, 41.563312530948622 ], [ -99.212295532312908, 41.554313660047399 ], [ -99.212394714044763, 41.540111542014131 ], [ -99.212394714044763, 41.500812531073507 ], [ -99.212196350581053, 41.495513916234302 ], [ -99.212196350581053, 41.473114013700808 ], [ -99.212097167949878, 41.463211059742662 ], [ -99.212196350581053, 41.456413268757387 ], [ -99.212295532312908, 41.452613830963571 ], [ -99.212295532312908, 41.408512114742337 ], [ -99.212394714044763, 41.394611358627344 ], [ -99.209899902058794, 41.394210814977157 ], [ -99.207794188950629, 41.394111633245359 ], [ -99.203292847386933, 41.394111633245359 ], [ -99.203300476335869, 41.390510558915196 ], [ -99.203598022430754, 41.376010894787044 ], [ -99.203598022430754, 41.361511229759515 ], [ -99.203697205061928, 41.350513458229557 ], [ -99.203796386793783, 41.346813202167596 ], [ -99.203796386793783, 41.342212677073462 ], [ -99.203895569424958, 41.333610534898298 ], [ -99.204093932888668, 41.321910857799878 ], [ -99.204193116419162, 41.314510344776636 ], [ -99.203697205061928, 41.296512603873623 ], [ -99.203598022430754, 41.29061126699645 ], [ -99.203697205061928, 41.28391265864235 ], [ -99.203796386793783, 41.279613494567172 ], [ -99.203994751156813, 41.276012421136386 ], [ -99.204193116419162, 41.267311096330104 ], [ -99.204193116419162, 41.264312744037966 ], [ -99.204299927099896, 41.253711700334748 ], [ -99.204498290563606, 41.246013641216621 ], [ -99.204696654926636, 41.234813690399562 ], [ -99.204696654926636, 41.230911255050444 ], [ -99.204895020188985, 41.220512389735063 ], [ -99.205200195232806, 41.206211089969884 ], [ -99.205398559595835, 41.200012206997826 ], [ -99.20529937696466, 41.19511032088468 ], [ -99.20529937696466, 41.183712005704535 ], [ -99.205398559595835, 41.180313109762267 ], [ -99.205398559595835, 41.174911499166399 ], [ -99.20549774222701, 41.162113189572096 ], [ -99.205795288321838, 41.159214019911133 ], [ -99.206100464264978, 41.144912720145953 ], [ -99.206497192091717, 41.125011443623293 ], [ -99.206695557354067, 41.118812560651179 ], [ -99.206695557354067, 41.108612060598148 ], [ -99.206993103448951, 41.09531402562186 ], [ -99.206993103448951, 41.09031295777686 ], [ -99.207099915029005, 41.08771133421078 ], [ -99.206993103448951, 41.074710846228641 ], [ -99.207099915029005, 41.070411682153463 ], [ -99.207298279392035, 41.060310363832286 ], [ -99.207695007218774, 41.047012328855942 ], [ -99.216896057407098, 41.046913147124087 ], [ -99.22669982873407, 41.046913147124087 ], [ -99.236198425017278, 41.046813965392232 ], [ -99.255294800214813, 41.046813965392232 ], [ -99.265098572441104, 41.046913147124087 ], [ -99.312095641600536, 41.046913147124087 ], [ -99.314697266065934, 41.046813965392232 ], [ -99.333198547275117, 41.046813965392232 ], [ -99.340194701724045, 41.04671096783693 ], [ -99.372497559115004, 41.04671096783693 ], [ -99.375396728775968, 41.046611786105075 ], [ -99.393798828253296, 41.046611786105075 ], [ -99.397094728438958, 41.04651260437322 ], [ -99.425994873164825, 41.04651260437322 ], [ -99.43479919372777, 41.046413421742045 ], [ -99.464195250710191, 41.046413421742045 ], [ -99.482894897181723, 41.046310425086119 ], [ -99.48869323740297, 41.046310425086119 ], [ -99.500396729425461, 41.046211243354264 ], [ -99.52099609389461, 41.046211243354264 ], [ -99.539093018328117, 41.046310425086119 ], [ -99.578796386943679, 41.046310425086119 ], [ -99.584999083940545, 41.046413421742045 ], [ -99.625396729175691, 41.046413421742045 ], [ -99.628494263199627, 41.04651260437322 ], [ -99.644393920842731, 41.046310425086119 ], [ -99.64719390877184, 41.046413421742045 ], [ -99.656593323323193, 41.046413421742045 ], [ -99.665596008249167, 41.04651260437322 ], [ -99.668693542273104, 41.04651260437322 ], [ -99.673599243310377, 41.046413421742045 ], [ -99.684097290357613, 41.046413421742045 ], [ -99.689498900953481, 41.04651260437322 ], [ -99.69639587456993, 41.04651260437322 ], [ -99.703598022330823, 41.046611786105075 ], [ -99.728996277156455, 41.046611786105075 ], [ -99.750793456752604, 41.04651260437322 ], [ -99.76089477507378, 41.046813965392232 ], [ -99.767700195007933, 41.04671096783693 ], [ -99.81849670375982, 41.04671096783693 ], [ -99.82309722885401, 41.046611786105075 ], [ -99.830894469703992, 41.046611786105075 ], [ -99.837493896326237, 41.04671096783693 ], [ -99.851097107245664, 41.04671096783693 ], [ -99.871597289982901, 41.046913147124087 ], [ -99.875396729575357, 41.047111510587797 ], [ -99.884796143227391, 41.047111510587797 ], [ -99.893997193415714, 41.047210693218972 ], [ -99.897094727439708, 41.047210693218972 ], [ -99.901100159444752, 41.047111510587797 ], [ -99.912796020719725, 41.047111510587797 ], [ -99.916893006407065, 41.047012328855942 ], [ -99.924095154168015, 41.047012328855942 ], [ -99.937797545919977, 41.047111510587797 ], [ -99.944099426447337, 41.047111510587797 ], [ -99.9555969242586, 41.047012328855942 ], [ -99.963294983376727, 41.047111510587797 ], [ -99.977600098066034, 41.047210693218972 ], [ -99.995300292874163, 41.047412871606809 ], [ -99.999198914198473, 41.047512054237984 ], [ -100.009094238308421, 41.047313689874954 ], [ -100.015899658242574, 41.046813965392232 ], [ -100.02469634985664, 41.047012328855942 ], [ -100.02709960905969, 41.046913147124087 ], [ -100.036399840979868, 41.046913147124087 ], [ -100.049598694224301, 41.04671096783693 ], [ -100.053497313749972, 41.04671096783693 ], [ -100.057395935074283, 41.046913147124087 ], [ -100.078193664805724, 41.046913147124087 ], [ -100.085594176929703, 41.047012328855942 ], [ -100.104698181076174, 41.047012328855942 ], [ -100.109199524438452, 41.047111510587797 ], [ -100.124397278311733, 41.047012328855942 ], [ -100.127899170010664, 41.046913147124087 ], [ -100.134094238058594, 41.046813965392232 ], [ -100.138298035326045, 41.046813965392232 ], [ -100.147994995072906, 41.04671096783693 ], [ -100.174896240069415, 41.04671096783693 ], [ -100.182098388729628, 41.046611786105075 ], [ -100.194198608578915, 41.046611786105075 ], [ -100.199996947900786, 41.04671096783693 ], [ -100.21549987771715, 41.04671096783693 ], [ -100.219200133779111, 41.046611786105075 ], [ -100.224197387599304, 41.046611786105075 ], [ -100.224197387599304, 41.038513184236137 ], [ -100.224098205867449, 41.032512664727733 ], [ -100.224197387599304, 41.021812439292717 ], [ -100.224197387599304, 41.001213073924248 ], [ -100.224296570230479, 40.98681259242727 ], [ -100.224197387599304, 40.973411559895624 ], [ -100.224197387599304, 40.95231246914517 ], [ -100.224395751962334, 40.942012787360284 ], [ -100.224395751962334, 40.921211242704715 ], [ -100.224494934593508, 40.916412354146871 ], [ -100.224296570230479, 40.887912750373175 ], [ -100.224296570230479, 40.877712250320144 ], [ -100.224395751962334, 40.87501144412289 ], [ -100.224296570230479, 40.872310637925636 ], [ -100.224197387599304, 40.859512329230654 ], [ -100.224197387599304, 40.853012085239584 ], [ -100.224098205867449, 40.835510253895166 ], [ -100.223999023236274, 40.83211135885216 ], [ -100.223999023236274, 40.822013854555792 ], [ -100.223693848192511, 40.806312561275718 ], [ -100.223793029924366, 40.801910399645294 ], [ -100.223793029924366, 40.783512115092094 ], [ -100.223693848192511, 40.773014068944178 ], [ -100.223594665561336, 40.768211364562887 ], [ -100.223396301198306, 40.750011444372717 ], [ -100.223396301198306, 40.727413176576874 ], [ -100.223297118567132, 40.714511871225909 ], [ -100.223297118567132, 40.704311371172878 ], [ -100.224098205867449, 40.700313568116712 ], [ -100.204597472994919, 40.700313568116712 ], [ -100.190193176573814, 40.70021057056141 ], [ -100.186393737880678, 40.700313568116712 ], [ -100.179893493889608, 40.700313568116712 ], [ -100.17649841287141, 40.70021057056141 ], [ -100.170593261969429, 40.700313568116712 ], [ -100.162895202851303, 40.700313568116712 ], [ -100.15069580127016, 40.70021057056141 ], [ -100.115394591587119, 40.70021057056141 ], [ -100.110397339565509, 40.700313568116712 ], [ -100.101295471109097, 40.700313568116712 ], [ -100.094696045386172, 40.70021057056141 ], [ -100.052497863885264, 40.70021057056141 ], [ -100.040893555393211, 40.700111388829612 ], [ -100.014297485440579, 40.700111388829612 ], [ -100.000000000599528, 40.699913025365902 ], [ -99.995193481294109, 40.699813842734727 ], [ -99.98159790022288, 40.699710846078744 ], [ -99.98159790022288, 40.670413970828122 ], [ -99.981697082854055, 40.662910461148897 ], [ -99.98159790022288, 40.655910491775842 ], [ -99.981498717591705, 40.644313812232724 ], [ -99.981498717591705, 40.638111115235859 ], [ -99.98139953585985, 40.631412505982439 ], [ -99.98139953585985, 40.626010895386571 ], [ -99.98179626458591, 40.612613677779052 ], [ -99.98179626458591, 40.606910706164228 ], [ -99.981697082854055, 40.583312987604359 ], [ -99.981697082854055, 40.570312499622219 ], [ -99.98159790022288, 40.554012299228305 ], [ -99.981697082854055, 40.547210693318902 ], [ -99.981697082854055, 40.544311522758619 ], [ -99.98179626458591, 40.540210723945791 ], [ -99.98159790022288, 40.537311554284827 ], [ -99.98159790022288, 40.525310516167451 ], [ -99.98139953585985, 40.510810852039242 ], [ -99.98139953585985, 40.500011443972994 ], [ -99.981697082854055, 40.497112274312087 ], [ -99.981498717591705, 40.481910706413998 ], [ -99.981498717591705, 40.467411041386526 ], [ -99.981300354127995, 40.452713012895288 ], [ -99.98129272517906, 40.446311950636073 ], [ -99.982299804892023, 40.438213347867759 ], [ -100.000099182331383, 40.438411713130108 ], [ -100.006896973316657, 40.438312531398253 ], [ -100.018898011434032, 40.438411713130108 ], [ -100.027496337785749, 40.438510894861963 ], [ -100.038299560776068, 40.438510894861963 ], [ -100.04399871836614, 40.438411713130108 ], [ -100.056900023717105, 40.438411713130108 ], [ -100.077293395773552, 40.438613892417266 ], [ -100.085800171140932, 40.438613892417266 ], [ -100.09529876742414, 40.438411713130108 ], [ -100.09529876742414, 40.409214019611341 ], [ -100.095199584792965, 40.394710540559061 ], [ -100.095199584792965, 40.386211395039879 ], [ -100.09499359058168, 40.373710632439781 ], [ -100.09499359058168, 40.358612061197732 ], [ -100.095199584792965, 40.351413726562271 ], [ -100.099899293417593, 40.351112366442635 ], [ -100.104499816713144, 40.351112366442635 ], [ -100.119194031179575, 40.350914001180286 ], [ -100.124694824406561, 40.350811005423623 ], [ -100.13990020812804, 40.350811005423623 ], [ -100.142494201845921, 40.350711822792448 ], [ -100.156700133903996, 40.350612640161273 ], [ -100.160194397553369, 40.350612640161273 ], [ -100.168693542173173, 40.350410460874116 ], [ -100.177696227998467, 40.350311279142261 ], [ -100.18339538558854, 40.350212097410406 ], [ -100.197799682909022, 40.350013733047376 ], [ -100.203697204862067, 40.34991073639145 ], [ -100.208099365593228, 40.350013733047376 ], [ -100.213195801145275, 40.34991073639145 ], [ -100.242996215802691, 40.349811553760276 ], [ -100.250396728825933, 40.349712372028421 ], [ -100.253295897587577, 40.349514007665391 ], [ -100.26029968278408, 40.349514007665391 ], [ -100.269599914704258, 40.349212645747059 ], [ -100.273399353397394, 40.349411011009408 ], [ -100.283493041870372, 40.349613190296566 ], [ -100.289794922397732, 40.349712372028421 ], [ -100.298393251447351, 40.349613190296566 ], [ -100.30749511720586, 40.34991073639145 ], [ -100.310295105134969, 40.34991073639145 ], [ -100.321395874220173, 40.350311279142261 ], [ -100.326095581046218, 40.350513458429418 ], [ -100.329795837108179, 40.350612640161273 ], [ -100.332199097210548, 40.350711822792448 ], [ -100.360893250423146, 40.351310729906288 ], [ -100.364692688216962, 40.351413726562271 ], [ -100.366897583056982, 40.351512909193445 ], [ -100.38289642333126, 40.351512909193445 ], [ -100.388298034826391, 40.351413726562271 ], [ -100.402297973572558, 40.351211548174433 ], [ -100.406295775729404, 40.351211548174433 ], [ -100.412498475424286, 40.351112366442635 ], [ -100.422798157209172, 40.350914001180286 ], [ -100.44089508074336, 40.350811005423623 ], [ -100.447097777740225, 40.350711822792448 ], [ -100.451896667197389, 40.350711822792448 ], [ -100.459594727214835, 40.350513458429418 ], [ -100.463096618913823, 40.350513458429418 ], [ -100.465599059848671, 40.350410460874116 ], [ -100.477897644060988, 40.350311279142261 ], [ -100.482192993212038, 40.350212097410406 ], [ -100.49199676543833, 40.350212097410406 ], [ -100.499496460193427, 40.350112914779231 ], [ -100.504493713114357, 40.350112914779231 ], [ -100.507797241349579, 40.350013733047376 ], [ -100.514694214066708, 40.350112914779231 ], [ -100.541694640795015, 40.350112914779231 ], [ -100.552597046416508, 40.350013733047376 ], [ -100.568695068422642, 40.349811553760276 ], [ -100.571800232294834, 40.349712372028421 ], [ -100.581199645946867, 40.349613190296566 ], [ -100.594795227018096, 40.349811553760276 ], [ -100.608497620568698, 40.349712372028421 ], [ -100.619796753117612, 40.349712372028421 ], [ -100.625396728975829, 40.349811553760276 ], [ -100.634193420589838, 40.349811553760276 ], [ -100.639999389760021, 40.349712372028421 ], [ -100.668594360341444, 40.349712372028421 ], [ -100.675796509001657, 40.349613190296566 ], [ -100.699699401705971, 40.349613190296566 ], [ -100.704498291163191, 40.349514007665391 ], [ -100.726997375428482, 40.349514007665391 ], [ -100.744697571135987, 40.349411011009408 ], [ -100.747596740796894, 40.349411011009408 ], [ -100.751197815127057, 40.349514007665391 ], [ -100.777297973722455, 40.349514007665391 ], [ -100.799995422350833, 40.349411011009408 ], [ -100.805892944303878, 40.349411011009408 ], [ -100.813995361097, 40.349613190296566 ], [ -100.817298889332221, 40.349411011009408 ], [ -100.819892883050102, 40.349411011009408 ], [ -100.826698302984255, 40.349514007665391 ], [ -100.848098754753721, 40.349514007665391 ], [ -100.852897644210884, 40.349613190296566 ], [ -100.871192932108102, 40.349411011009408 ], [ -100.879196167169368, 40.349411011009408 ], [ -100.889900208427832, 40.349514007665391 ], [ -100.906700134203788, 40.349514007665391 ], [ -100.912696837888745, 40.349613190296566 ], [ -100.92079925558113, 40.349613190296566 ], [ -100.947097779438934, 40.34991073639145 ], [ -100.964195251309775, 40.350311279142261 ], [ -100.966796874875854, 40.350311279142261 ], [ -100.984695434946332, 40.350513458429418 ], [ -101.000396729125725, 40.350513458429418 ], [ -101.00460052459448, 40.350612640161273 ], [ -101.015998839774625, 40.350612640161273 ], [ -101.0413970946002, 40.350711822792448 ], [ -101.088600158870179, 40.350711822792448 ], [ -101.092399597563315, 40.350811005423623 ], [ -101.104095458838344, 40.350811005423623 ], [ -101.108200072575244, 40.350914001180286 ], [ -101.113800049332781, 40.350914001180286 ], [ -101.119293212711568, 40.350811005423623 ], [ -101.124893188569786, 40.350914001180286 ], [ -101.137100219999127, 40.350914001180286 ], [ -101.147994994873102, 40.350811005423623 ], [ -101.194297791010229, 40.350811005423623 ], [ -101.211196899417359, 40.350711822792448 ], [ -101.263000487882152, 40.350711822792448 ], [ -101.267295837033203, 40.350811005423623 ], [ -101.2747955317883, 40.350811005423623 ], [ -101.278396606118463, 40.350612640161273 ], [ -101.295799254831707, 40.350612640161273 ], [ -101.304794311708065, 40.350513458429418 ], [ -101.322898865090508, 40.350513458429418 ], [ -101.330093383902522, 40.350410460874116 ], [ -101.363395691158189, 40.350410460874116 ], [ -101.369094848748261, 40.350311279142261 ], [ -101.372200011721134, 40.350311279142261 ], [ -101.375396729275622, 40.350410460874116 ], [ -101.380393982196495, 40.350311279142261 ], [ -101.405197143933037, 40.350311279142261 ], [ -101.418296815445615, 40.350212097410406 ], [ -101.431594850421959, 40.350212097410406 ], [ -101.436996460118507, 40.350311279142261 ], [ -101.450599670138615, 40.350212097410406 ], [ -101.494094849397754, 40.350212097410406 ], [ -101.496498108600804, 40.350112914779231 ], [ -101.51299285933294, 40.350112914779231 ], [ -101.53209686258009, 40.350013733047376 ], [ -101.536994933769165, 40.34991073639145 ], [ -101.575798035151138, 40.34991073639145 ], [ -101.588699341401423, 40.349811553760276 ], [ -101.60749816870549, 40.349712372028421 ], [ -101.625495911407143, 40.349811553760276 ], [ -101.636894226587231, 40.349712372028421 ], [ -101.645393372106412, 40.349613190296566 ], [ -101.683494567919922, 40.349613190296566 ], [ -101.701995850028425, 40.349411011009408 ], [ -101.72119903590675, 40.349411011009408 ], [ -101.750099182431313, 40.349514007665391 ], [ -101.777793883980507, 40.349514007665391 ], [ -101.797996522421556, 40.349411011009408 ], [ -101.892395020213996, 40.349411011009408 ], [ -101.901794433865973, 40.349311829277553 ], [ -101.911796569556031, 40.349411011009408 ], [ -101.927200316741164, 40.349411011009408 ], [ -101.934799194127493, 40.349311829277553 ], [ -101.942993163703534, 40.349411011009408 ], [ -101.948997498136009, 40.349311829277553 ], [ -101.976593017953405, 40.349311829277553 ], [ -101.996795654595758, 40.349212645747059 ], [ -102.051498412721514, 40.349212645747059 ], [ -102.051795958816399, 40.360111237343801 ], [ -102.051597595352689, 40.375011444222821 ], [ -102.051597595352689, 40.393413543700149 ], [ -102.051795958816399, 40.396312714260432 ], [ -102.051498412721514, 40.418113707881389 ], [ -102.051498412721514, 40.44001388503284 ], [ -102.051498412721514, 40.46551132159027 ], [ -102.051399230989659, 40.479511261235757 ], [ -102.051300049257804, 40.48481369009977 ], [ -102.051300049257804, 40.488113403410864 ], [ -102.051597595352689, 40.500011443972994 ], [ -102.051498412721514, 40.520111083959421 ], [ -102.051498412721514, 40.523612975658352 ], [ -102.051597595352689, 40.52791213973353 ], [ -102.051498412721514, 40.534011840973733 ], [ -102.051597595352689, 40.537612915303839 ], [ -102.051498412721514, 40.541713715015987 ], [ -102.051399230989659, 40.551212311299196 ], [ -102.051498412721514, 40.556510925239081 ], [ -102.051498412721514, 40.563812255631149 ], [ -102.051399230989659, 40.567111968942243 ], [ -102.051498412721514, 40.570911406736059 ], [ -102.051498412721514, 40.582012176720639 ], [ -102.051399230989659, 40.600013733447099 ], [ -102.051399230989659, 40.619411468764326 ], [ -102.051498412721514, 40.625411987373354 ], [ -102.051498412721514, 40.628513336321475 ], [ -102.051399230989659, 40.639610291381871 ], [ -102.051399230989659, 40.672012328706046 ], [ -102.051300049257804, 40.683013916059451 ], [ -102.051399230989659, 40.686710358096605 ], [ -102.051300049257804, 40.697513580187604 ], [ -102.051399230989659, 40.706211090069814 ], [ -102.051399230989659, 40.719413757339055 ], [ -102.051300049257804, 40.739810944319686 ], [ -102.051300049257804, 40.74981207906427 ], [ -102.051300049257804, 40.75591278124989 ], [ -102.051399230989659, 40.758411407260667 ], [ -102.051399230989659, 40.785213469626001 ], [ -102.051498412721514, 40.79361343431259 ], [ -102.051498412721514, 40.799812317284648 ], [ -102.051597595352689, 40.808612822923465 ], [ -102.051597595352689, 40.822910308663893 ], [ -102.051498412721514, 40.827911377408213 ], [ -102.051498412721514, 40.852210998838586 ], [ -102.051399230989659, 40.858711242829656 ], [ -102.051498412721514, 40.867313385004763 ], [ -102.051399230989659, 40.871711730811796 ], [ -102.051399230989659, 40.89261245719922 ], [ -102.051498412721514, 40.896511077624211 ], [ -102.051498412721514, 40.920310973672542 ], [ -102.051597595352689, 40.922912598137941 ], [ -102.051597595352689, 40.925510405880573 ], [ -102.051498412721514, 40.930110930974763 ], [ -102.051498412721514, 40.933311461654682 ], [ -102.051597595352689, 40.941413879347124 ], [ -102.051498412721514, 40.945110321384277 ], [ -102.051498412721514, 40.991912842004126 ], [ -102.051399230989659, 41.000011443873063 ], [ -102.051597595352689, 41.002910614433347 ], [ -102.05569458014071, 41.002410889051362 ], [ -102.0595932005657, 41.002311707319507 ], [ -102.069900513098162, 41.002311707319507 ], [ -102.075393677376269, 41.002410889051362 ], [ -102.107192993561796, 41.002410889051362 ], [ -102.119094849047997, 41.002311707319507 ], [ -102.125198364313007, 41.002311707319507 ], [ -102.12849426359935, 41.002410889051362 ], [ -102.163993834947462, 41.002410889051362 ], [ -102.170700073149817, 41.002311707319507 ], [ -102.196197509707247, 41.002311707319507 ], [ -102.209098815957532, 41.002410889051362 ], [ -102.212196349981525, 41.002410889051362 ], [ -102.224494934193842, 41.002311707319507 ], [ -102.232299804892023, 41.002311707319507 ], [ -102.240196228373179, 41.002410889051362 ], [ -102.267799377139511, 41.002410889051362 ], [ -102.272193908921736, 41.002212523789012 ], [ -102.277793883880577, 41.002311707319507 ], [ -102.28769683783878, 41.002311707319507 ], [ -102.292297362932914, 41.002212523789012 ], [ -102.36409759472815, 41.002212523789012 ], [ -102.3757934569025, 41.002311707319507 ], [ -102.411697387724246, 41.002311707319507 ], [ -102.430496215927576, 41.002212523789012 ], [ -102.460296630584992, 41.002410889051362 ], [ -102.4697952268682, 41.002410889051362 ], [ -102.473495482930161, 41.002311707319507 ], [ -102.478096008024295, 41.002311707319507 ], [ -102.486694336174651, 41.002410889051362 ], [ -102.501693726584165, 41.002311707319507 ], [ -102.527893066012155, 41.002311707319507 ], [ -102.543098449733634, 41.002212523789012 ], [ -102.565093994592132, 41.002212523789012 ], [ -102.575599670588304, 41.002311707319507 ], [ -102.581695556904378, 41.002311707319507 ], [ -102.598297119216625, 41.002410889051362 ], [ -102.606895447366981, 41.002513884807968 ], [ -102.620895386113148, 41.002910614433347 ], [ -102.620994567845003, 41.019611359376768 ], [ -102.620895386113148, 41.037712096935763 ], [ -102.620895386113148, 41.048011779619969 ], [ -102.610198974702882, 41.048213958907127 ], [ -102.610198974702882, 41.062511443748178 ], [ -102.610298157334057, 41.066711426091501 ], [ -102.610298157334057, 41.091213225909712 ], [ -102.610397339065912, 41.094711303583836 ], [ -102.610397339065912, 41.113712311074323 ], [ -102.610298157334057, 41.117610930599994 ], [ -102.610298157334057, 41.136211395339672 ], [ -102.610496520797767, 41.14091110216566 ], [ -102.610496520797767, 41.143913269381926 ], [ -102.610694885160797, 41.151813506887891 ], [ -102.610893250423146, 41.157512665377283 ], [ -102.61100006110388, 41.164112091100151 ], [ -102.610794066892652, 41.192913054993539 ], [ -102.610298157334057, 41.207111359002056 ], [ -102.610397339065912, 41.221714019786248 ], [ -102.610397339065912, 41.22781372102645 ], [ -102.610298157334057, 41.234413146749375 ], [ -102.610198974702882, 41.236812591927617 ], [ -102.609992981390917, 41.265510559165023 ], [ -102.610099792071708, 41.280014038217359 ], [ -102.610099792071708, 41.288112640086297 ], [ -102.609992981390917, 41.29041290263342 ], [ -102.609893798759742, 41.293010712174691 ], [ -102.609992981390917, 41.308311461804578 ], [ -102.609992981390917, 41.310813903638802 ], [ -102.609397888301885, 41.323913574252117 ], [ -102.609397888301885, 41.340812682659248 ], [ -102.60949707003374, 41.352813720776624 ], [ -102.609695435296089, 41.36121368366463 ], [ -102.609695435296089, 41.370212554565796 ], [ -102.609397888301885, 41.375411986773827 ], [ -102.60949707003374, 41.38611221310822 ], [ -102.609794617027944, 41.395111084009386 ], [ -102.620697020850798, 41.395111084009386 ], [ -102.626800537015129, 41.395210265741241 ], [ -102.636695862024396, 41.395210265741241 ], [ -102.636695862024396, 41.497810363857241 ], [ -102.636894226387426, 41.50021362306029 ], [ -102.636795043756251, 41.502811431702241 ], [ -102.636894226387426, 41.506210326745247 ], [ -102.636894226387426, 41.508911132942501 ], [ -102.636993408119281, 41.525611876986602 ], [ -102.636894226387426, 41.528812407666521 ], [ -102.636795043756251, 41.540710449127971 ], [ -102.636894226387426, 41.549213408671903 ], [ -102.636894226387426, 41.561313629420511 ], [ -102.637100220598654, 41.566211699710209 ], [ -102.637298584062364, 41.5929107672182 ], [ -102.637397765794219, 41.597312927049984 ], [ -102.637100220598654, 41.612113953096525 ], [ -102.637100220598654, 41.618610382163467 ], [ -102.637298584062364, 41.62581253082368 ], [ -102.637100220598654, 41.653812408316071 ], [ -102.637397765794219, 41.669712066858438 ], [ -102.637496948425394, 41.676612853600375 ], [ -102.637397765794219, 41.686813353653406 ], [ -102.637397765794219, 41.69661331185489 ], [ -102.637596130157249, 41.702213286813787 ], [ -102.638397216558246, 41.714210510007092 ], [ -102.636795043756251, 41.728610992403446 ], [ -102.636596680292541, 41.737312317209728 ], [ -102.636497498560686, 41.743110657430975 ], [ -102.664093018378082, 41.743412017550611 ], [ -102.666999816987925, 41.750011444172856 ], [ -102.669593810705749, 41.758510589692037 ], [ -102.67139434787083, 41.763313293174008 ], [ -102.672798157209172, 41.768013 ], [ -102.674194335799939, 41.772010803056162 ], [ -102.677200317040956, 41.789813995419593 ], [ -102.6778945918619, 41.795913695760476 ], [ -102.678398132168013, 41.801513671618693 ], [ -102.678497313899868, 41.810913086170046 ], [ -102.678993225257102, 41.822811126732176 ], [ -102.678695679162217, 41.826511382794138 ], [ -102.679100036837212, 41.842910766718546 ], [ -102.678894044424567, 41.848911285327631 ], [ -102.678794860894072, 41.853610992153619 ], [ -102.678497313899868, 41.863113403360956 ], [ -102.678298950436158, 41.870010376078028 ], [ -102.678298950436158, 41.893611907763386 ], [ -102.67809295712425, 41.911510467833864 ], [ -102.67809295712425, 41.914813995169766 ], [ -102.677993773593755, 41.920013428277173 ], [ -102.677993773593755, 41.926811218363071 ], [ -102.6778945918619, 41.93981170724453 ], [ -102.677795410130045, 41.947811127381669 ], [ -102.677597045767016, 41.960811615363809 ], [ -102.677398682303306, 41.967514037742717 ], [ -102.677299500571451, 41.975112915128989 ], [ -102.677200317040956, 41.979911803686832 ], [ -102.677200317040956, 41.984611511412197 ], [ -102.677093506360222, 41.990612030021225 ], [ -102.67769622839819, 42.000011443673259 ], [ -102.677597045767016, 42.005313873436535 ], [ -102.684494019383465, 42.005111694149434 ], [ -102.697799683308688, 42.004810333130422 ], [ -102.698799133173395, 42.026611327650699 ], [ -102.699394226262484, 42.030811309994021 ], [ -102.701797484566214, 42.048412323070295 ], [ -102.702095031560418, 42.051311492731259 ], [ -102.702293395923448, 42.068813324075677 ], [ -102.702293395923448, 42.083812713585928 ], [ -102.702400208402878, 42.087211608628877 ], [ -102.702400208402878, 42.09271240185592 ], [ -102.72939300528293, 42.092411040836907 ], [ -102.733398438187351, 42.092311859105052 ], [ -102.742294312432534, 42.092311859105052 ], [ -102.742294312432534, 42.096714019836213 ], [ -102.742095947170185, 42.120910644610603 ], [ -102.742095947170185, 42.125011444322752 ], [ -102.7417984010753, 42.146213530829812 ], [ -102.741600036712271, 42.168113707981263 ], [ -102.741600036712271, 42.178310394009543 ], [ -102.741699219343445, 42.181312561225752 ], [ -102.74219512890204, 42.190910339240816 ], [ -102.742294312432534, 42.193313599343185 ], [ -102.743095397934212, 42.204212189141288 ], [ -102.743598938240382, 42.21161270126521 ], [ -102.744796753367439, 42.226711273406579 ], [ -102.745300292774232, 42.233413695785487 ], [ -102.745597838869116, 42.239013671643704 ], [ -102.746498107901346, 42.250411986823792 ], [ -102.746894835728028, 42.271511077574246 ], [ -102.746994019258523, 42.280014038017498 ], [ -102.747200012570488, 42.286113739257701 ], [ -102.747398376034198, 42.296112060922951 ], [ -102.747398376034198, 42.298412322570698 ], [ -102.747497559564692, 42.301013947036097 ], [ -102.747695923028402, 42.305110930924798 ], [ -102.747795104760257, 42.308410645135211 ], [ -102.747795104760257, 42.330211638756168 ], [ -102.747695923028402, 42.336013793901543 ], [ -102.747795104760257, 42.341712952390878 ], [ -102.747795104760257, 42.351612091424954 ], [ -102.750694275320541, 42.355213164855741 ], [ -102.751594542554074, 42.35711288465194 ], [ -102.751495360822219, 42.371513367048294 ], [ -102.751396179090364, 42.375011443823155 ], [ -102.750900270431089, 42.386810302653373 ], [ -102.750396729225656, 42.393413544199746 ], [ -102.750198363963307, 42.395812987579347 ], [ -102.750099182231452, 42.398513793776601 ], [ -102.750198363963307, 42.401210785049727 ], [ -102.750198363963307, 42.408313751078822 ], [ -102.749999999600277, 42.415210723795894 ], [ -102.749794006288312, 42.419811248890085 ], [ -102.749595641925282, 42.429710387924104 ], [ -102.749893188020167, 42.440013884633117 ], [ -102.765998839874499, 42.440113068163612 ], [ -102.770599364968689, 42.440013884633117 ], [ -102.773193359585832, 42.440013884633117 ], [ -102.773399352897798, 42.443111419556431 ], [ -102.773399352897798, 42.456710814652411 ], [ -102.773300171165943, 42.470710754297897 ], [ -102.773300171165943, 42.474212645996886 ], [ -102.773193359585832, 42.477611541939154 ], [ -102.773094176954658, 42.486213684114261 ], [ -102.772994995222803, 42.488712311024415 ], [ -102.772994995222803, 42.491813659972479 ], [ -102.772895812591628, 42.495811462129325 ], [ -102.773094176954658, 42.499912261841473 ], [ -102.772994995222803, 42.504211425916651 ], [ -102.773094176954658, 42.511211395289706 ], [ -102.773094176954658, 42.513813018855785 ], [ -102.773193359585832, 42.516910552879779 ], [ -102.773094176954658, 42.519611359077032 ], [ -102.773094176954658, 42.522312164374966 ], [ -102.773193359585832, 42.526012421336247 ], [ -102.773300171165943, 42.546112061322617 ], [ -102.773300171165943, 42.554813385229579 ], [ -102.773399352897798, 42.56461334163248 ], [ -102.773399352897798, 42.583713530854823 ], [ -102.773498536428292, 42.594211577902058 ], [ -102.773498536428292, 42.605010985968306 ], [ -102.773597717260827, 42.613113402761371 ], [ -102.773193359585832, 42.626113891642831 ], [ -102.773399352897798, 42.638813018605958 ], [ -102.773399352897798, 42.641712189166242 ], [ -102.773696898992682, 42.656211853294451 ], [ -102.773696898992682, 42.673912048102579 ], [ -102.773796083422496, 42.67761230506386 ], [ -102.773796083422496, 42.693710327069994 ], [ -102.773696898992682, 42.698711394914994 ], [ -102.773696898992682, 42.708011626835173 ], [ -102.773597717260827, 42.713512420961536 ], [ -102.773696898992682, 42.717212677023497 ], [ -102.773796083422496, 42.722713470250483 ], [ -102.773796083422496, 42.728012085089688 ], [ -102.773696898992682, 42.737113952646837 ], [ -102.773597717260827, 42.743812561000937 ], [ -102.773399352897798, 42.749210357571997 ], [ -102.773193359585832, 42.753112792921115 ], [ -102.773300171165943, 42.775012970072567 ], [ -102.773300171165943, 42.77851104684737 ], [ -102.773399352897798, 42.785312652756772 ], [ -102.777496338585138, 42.785213470125598 ], [ -102.792694091559042, 42.785213470125598 ], [ -102.792694091559042, 42.793113707631562 ], [ -102.792793274190217, 42.805213928380169 ], [ -102.792793274190217, 42.814613342032146 ], [ -102.792999268401502, 42.840713500627601 ], [ -102.793098450133357, 42.85581207276897 ], [ -102.793197631865155, 42.864212035656976 ], [ -102.793197631865155, 42.885013580312545 ], [ -102.792999268401502, 42.89221191404863 ], [ -102.792793274190217, 42.896312713760778 ], [ -102.792793274190217, 42.906112671062999 ], [ -102.792694091559042, 42.913211823067229 ], [ -102.792594909827187, 42.926410675412399 ], [ -102.792594909827187, 42.943412781374832 ], [ -102.792495728095332, 42.955211639305787 ], [ -102.792495728095332, 42.958911896267068 ], [ -102.792297362832983, 42.971412658867166 ], [ -102.792396544564838, 42.981910705914402 ], [ -102.792297362832983, 42.989711760789191 ], [ -102.792297362832983, 42.994812012164687 ], [ -102.792594909827187, 42.999912261741542 ], [ -102.782493592405331, 43.000011444372717 ], [ -102.652694702298618, 43.000011444372717 ], [ -102.642898559920582, 42.999912261741542 ] ] ] } }
]
}
