{"type":"FeatureCollection","features":[{"type":"Feature","id":1,"geometry":{"type":"Polygon","coordinates":[[[-115.12999999973422,39.07999999979425],[-114.74999999974719,39.549999999738105],[-114.34999999990268,40.200000000262946],[-114.26999999957445,40.429999999706766],[-114.25999999964571,40.90999999992846],[-114.26999999957445,41.03999999997531],[-114.29000000033025,41.23000000029515],[-114.3799999996889,41.48999999985398],[-114.4500000000884,41.670000000052056],[-114.59999999991778,41.759999999894006],[-114.74999999974719,41.68999999969229],[-115.23999999984866,41.22000000015491],[-115.69000000023519,40.80999999966142],[-116.33000000016607,40.32000000009269],[-116.65999999961107,40.08000000026999],[-116.88999999976869,39.810000000024644],[-117.26999999975574,39.23000000016278],[-117.3600000000127,38.940000000338806],[-117.25999999982699,38.72999999996434],[-117.1800000003971,38.56999999980472],[-116.89999999969744,38.42000000019481],[-116.47999999999546,38.309999999842326],[-116.06000000029348,38.430000000174765],[-115.52999999957873,38.69999999982462],[-115.12999999973422,39.07999999979425]]]},"properties":{"dn":5,"valid":"202609271700","expire":"202609281200","idp_filedate":1790527517000,"idp_ingestdate":1790527567000,"idp_source":"firewx_day1_20260927_1700","objectid":1,"st_area(shape)":90428537329.4754,"st_perimeter(shape)":1281849.9026775819,"day":1,"outlook_type":"fire","category":"Elevated","risk":"ELEV","fill":"#E69800","stroke":"#9B6500"}}]}