{"type":"FeatureCollection","features":[{"type":"Feature","id":1,"geometry":{"type":"MultiPolygon","coordinates":[[[[-115.73124316859037,32.44962204600177],[-115.4700000000063,33.93000000036958],[-115.14999999959169,34.78000000014255],[-114.09999999988759,35.13999999996543],[-113.57000000007116,35.12999999991833],[-112.55000000015325,34.800000000019],[-111.77000000032172,34.0799999998811],[-110.68999999993305,32.82999999969595],[-110.46014393503678,31.141441981159385],[-109.96199999991062,31.130999999859338],[-109.09399999998755,31.122999999994736],[-108.0440000002834,31.185999999919726],[-108.00200000040306,31.62299999978335],[-107.74499999980901,31.620000000315578],[-107.18300000004095,31.602000000201507],[-106.71439053795785,31.57990296854161],[-107.2200000004061,32.49000000010501],[-107.31999999969348,33.6999999998561],[-107.30999999976476,35.03000000036757],[-107.44999999966542,36.27000000015372],[-107.23000000033484,37.119999999648215],[-106.80999999973454,37.80999999991009],[-106.16999999980368,38.94999999994557],[-105.86000000021615,40.310000000204546],[-105.46000000037162,41.80999999974428],[-103.85000000016653,42.470000000257514],[-103.36000000006507,43.75000000020423],[-102.48000000004784,45.11999999986949],[-102.43000000040414,45.690000000299385],[-102.9700000001493,46.170000000168145],[-103.85000000016653,46.22000000008438],[-105.98000000025932,45.79999999998162],[-107.47000000042121,46.170000000168145],[-108.189999999782,46.9899999998158],[-109.36000000042762,47.260000000289324],[-112.69999999998265,46.37999999983632],[-113.83999999994374,45.36999999994955],[-114.35999999983143,43.55000000024629],[-114.61999999977527,42.01999999985973],[-113.73999999975803,40.569999999968026],[-113.83999999994374,39.529999999932386],[-114.75999999967593,38.210000000341246],[-116.38999999973849,36.61999999966036],[-117.13999999978381,35.380000000130906],[-117.73999999999975,33.60000000029325],[-117.96511632258996,33.03332787753208],[-117.79099999972613,32.91099999972857],[-117.74599999959766,32.69400000003304],[-117.73799999983432,32.530999999989135],[-117.64600000031027,32.47199999975805],[-117.21699999986393,32.396999999686145],[-116.70699999990495,32.39399999970754],[-115.79800000018422,32.440999999774384],[-115.73124316859037,32.44962204600177]]],[[[-86.45190020561532,30.063934673660626],[-85.80000000033353,33.370000000051235],[-85.00999999967493,34.260000000007146],[-81.18999999994716,35.25000000032703],[-79.14000000018261,35.17000000006098],[-75.1657143845433,35.24552086695527],[-75.132372129979,35.53980250776274],[-76.42999999973141,35.84000000035932],[-77.40000000000563,35.769999999653926],[-78.89000000016752,36.01000000015755],[-79.75000000032728,36.29000000028829],[-80.59999999966,36.900000000250735],[-81.39000000031858,37.6299999998907],[-81.31999999991909,39.39999999981851],[-81.43999999996227,40.34999999979568],[-82.26000000040708,41.14000000023217],[-83.42000000022564,41.32999999979649],[-84.56000000018673,41.349999999954036],[-85.820000000191,40.72999999972243],[-87.58000000022547,39.71999999998376],[-88.9299999995884,38.1299999996955],[-89.88999999993388,35.96000000020133],[-89.78999999974816,34.620000000285216],[-88.90999999973093,33.90000000020012],[-87.86999999995554,33.97999999982866],[-87.08000000019527,34.120000000247764],[-86.33000000014995,33.93000000036958],[-85.99999999980662,33.350000000174745],[-86.19000000024928,31.960000000173668],[-86.32000000022121,31.069999999801965],[-86.51068988075093,30.060932713754774],[-86.46200000028728,30.067999999727114],[-86.45190020561532,30.063934673660626]]],[[[-81.00899132521816,30.961904131996484],[-81.89000000034879,30.790000000293748],[-83.28692033201632,28.852018975582467],[-83.27299999974605,28.82700000000521],[-83.02599999997905,28.7529999998476],[-82.98999999969661,28.55099999985176],[-83.0139999998849,28.46500000021246],[-83.15599999995098,28.372999999943726],[-83.1849999996545,28.105000000322374],[-83.1830000003874,27.781000000113178],[-83.07000000002483,27.615000000386566],[-83.10500000022458,27.532000000110262],[-82.71899999974133,26.891999999910425],[-82.53499999979488,26.480000000350312],[-82.32400000031033,26.17100000015675],[-82.1429999997137,26.089999999620844],[-81.93400000039458,25.609999999746137],[-82.63199999973247,25.45300000034019],[-82.51000000042218,25.287999999999982],[-82.36800000035612,25.133999999702585],[-82.3130000002989,25.016999999980946],[-83.1629999996316,25.012000000332282],[-83.23800000044461,24.797999999849537],[-83.28000000032497,24.513000000204464],[-83.2880000000883,24.221000000253113],[-82.8159999996789,24.168999999757567],[-81.78200000039976,24.20799999985128],[-81.05400000037733,24.36100000028893],[-80.63499999985973,24.487000000098494],[-80.33099999987012,24.705000000229205],[-80.14299999959286,24.85900000030483],[-79.96500000014264,25.157999999906814],[-79.81200000006513,25.576000000267165],[-79.76599999985393,26.22799999994933],[-79.69999999978528,26.7770000003825],[-79.78799999987683,27.14799999977349],[-80.27100000029768,28.231999999937326],[-80.19699999956737,28.551999999931745],[-80.34899999956217,28.82999999997439],[-80.76499999983166,29.498000000270107],[-80.98900000039137,30.127999999644274],[-81.08999999976146,30.739999999707894],[-81.00899132521816,30.961904131996484]]]]},"properties":{"objectid":1,"dn":2,"valid":"202610101200","expire":"202610111200","idp_source":"day2otlk_20261009_0600_cat","idp_filedate":1791525321000,"idp_ingestdate":1791525343000,"st_area(shape)":3190270128669.114,"st_perimeter(shape)":15486767.256391132,"issue":"202610090550","label":"TSTM","label2":"General Thunderstorms Risk","stroke":"#55BB55","fill":"#C1E9C1","day":2,"category":"Thunderstorm","risk":"TSTM"}},{"type":"Feature","id":2,"geometry":{"type":"MultiPolygon","coordinates":[[[[-83.28692033201632,28.852018975582467],[-81.89000000034879,30.790000000293748],[-81.00899132521816,30.961904131996484],[-80.76399999974895,31.632999999794418],[-80.43599999957102,31.966000000040754],[-80.20999999974421,32.07000000028423],[-80.06099999999752,32.20300000026783],[-79.72500000005627,32.426999999636884],[-79.29400000034285,32.69000000006889],[-78.9309999999652,32.92800000003508],[-78.8079999996739,33.30899999969651],[-78.56899999967023,33.48299999999213],[-78.1630000002278,33.577000000129544],[-77.94999999967952,33.5159999997705],[-77.68400000013776,33.61500000032088],[-77.52100000013151,34.03200000020361],[-76.93600000025785,34.35800000021373],[-76.7759999996014,34.3539999999651],[-76.53999999984586,34.2479999999548],[-76.26499999955973,34.37500000008697],[-75.72599999989728,34.85700000021271],[-75.42899999958827,34.93100000023315],[-75.27899999975888,34.98400000001436],[-75.16600000029463,35.24299999970195],[-75.1657143845433,35.24552086695527],[-79.14000000018261,35.17000000006098],[-81.18999999994716,35.25000000032703],[-85.00999999967493,34.260000000007146],[-85.80000000033353,33.370000000051235],[-86.45190020561532,30.063934673660626],[-85.98500000036266,29.875999999662792],[-85.90654969810413,29.81122452188317],[-85.4999999997764,31.229999999964775],[-85.23999999983255,32.84000000010744],[-84.58999999997295,33.33000000032851],[-82.87999999958215,33.940000000028476],[-81.75000000044813,34.0799999998811],[-80.33999999971614,34.120000000247764],[-79.86000000044173,33.77000000031777],[-80.21999999967296,33.03999999981658],[-81.73999999962109,31.579999999662892],[-82.72999999975276,30.839999999808267],[-83.81439041997281,29.536908991278217],[-83.62500000011228,29.28999999978877],[-83.42100000030834,29.092999999968058],[-83.28692033201632,28.852018975582467]]],[[[-110.46014393503678,31.141441981159385],[-110.68999999993305,32.82999999969595],[-111.77000000032172,34.0799999998811],[-112.55000000015325,34.800000000019],[-113.57000000007116,35.12999999991833],[-114.09999999988759,35.13999999996543],[-115.14999999959169,34.78000000014255],[-115.4700000000063,33.93000000036958],[-115.73124316859037,32.44962204600177],[-115.01600000018728,32.542000000071326],[-115.00600000025852,32.39499999990261],[-114.58599999965824,32.219000000117845],[-113.70100000012577,31.95900000031523],[-112.24999999959613,31.50899999971557],[-111.16900000002309,31.193999999960507],[-110.77299999961109,31.148000000286697],[-110.46014393503678,31.141441981159385]]]]},"properties":{"objectid":2,"dn":3,"valid":"202610101200","expire":"202610111200","idp_source":"day2otlk_20261009_0600_cat","idp_filedate":1791525321000,"idp_ingestdate":1791525343000,"st_area(shape)":472424240758.76135,"st_perimeter(shape)":6821000.93751819,"issue":"202610090550","label":"MRGL","label2":"Marginal Risk","stroke":"#005500","fill":"#66A366","day":2,"category":"Marginal","risk":"MRGL"}},{"type":"Feature","id":3,"geometry":{"type":"Polygon","coordinates":[[[-83.81439041997281,29.536908991278217],[-82.72999999975276,30.839999999808267],[-81.73999999962109,31.579999999662892],[-80.21999999967296,33.03999999981658],[-79.86000000044173,33.77000000031777],[-80.33999999971614,34.120000000247764],[-81.75000000044813,34.0799999998811],[-82.87999999958215,33.940000000028476],[-84.58999999997295,33.33000000032851],[-85.23999999983255,32.84000000010744],[-85.4999999997764,31.229999999964775],[-85.90654969810413,29.81122452188317],[-85.76700000029918,29.695999999639433],[-85.67499999987682,29.43600000019386],[-85.33599999968743,29.334999999855967],[-85.01800000033657,29.24600000015382],[-84.46699999968165,29.438000000111135],[-84.17100000035367,29.625999999889302],[-84.07300000033338,29.730000000081546],[-83.89499999998485,29.642000000249872],[-83.81439041997281,29.536908991278217]]]},"properties":{"objectid":3,"dn":4,"valid":"202610101200","expire":"202610111200","idp_source":"day2otlk_20261009_0600_cat","idp_filedate":1791525321000,"idp_ingestdate":1791525343000,"st_area(shape)":236161867252.30115,"st_perimeter(shape)":2072937.4277872078,"issue":"202610090550","label":"SLGT","label2":"Slight Risk","stroke":"#DDAA00","fill":"#FFE066","day":2,"category":"Slight","risk":"SLGT"}}]}