{"type":"FeatureCollection","features":[{"type":"Feature","id":1,"geometry":{"type":"MultiPolygon","coordinates":[[[[-111.30000000007773,33.339999999869804],[-111.24073435079217,31.214903164608288],[-111.16900000002309,31.193999999960507],[-110.77299999961109,31.148000000286697],[-109.96199999991062,31.130999999859338],[-109.09399999998755,31.122999999994736],[-108.0440000002834,31.185999999919726],[-108.00200000040306,31.62299999978335],[-107.74499999980901,31.620000000315578],[-107.18300000004095,31.602000000201507],[-106.56800000038109,31.57300000013552],[-106.50899999999304,31.408999999758006],[-106.06400000002006,31.193999999960507],[-105.6049999997875,30.821999999951387],[-105.11499999968603,30.47600000009909],[-104.92600000022436,30.211000000059553],[-104.87899999993047,29.862999999612942],[-104.63599999959601,29.554000000015556],[-104.190999999623,29.275000000208898],[-103.51934677998288,28.92090303079352],[-103.48000000010825,30.180000000321087],[-103.79999999962455,31.210000000232323],[-104.57000000042564,32.33000000000254],[-105.66999999977345,33.49999999965731],[-107.0499999998209,34.43000000003135],[-106.95999999956395,35.27999999985435],[-106.2799999999181,35.96000000020133],[-104.75999999996999,37.17999999968495],[-104.20000000036735,38.34000000003591],[-104.07000000039544,39.34999999976283],[-103.19000000037819,39.65999999969264],[-101.96000000016015,40.01000000015719],[-100.5099999997132,40.5499999998105],[-98.20999999993354,40.76999999975157],[-97.06999999997247,41.01000000016154],[-96.88000000042811,41.349999999954036],[-97.46999999981696,42.28000000014646],[-98.91000000033517,42.81000000001397],[-101.9200000004452,42.65000000002851],[-106.89999999999152,41.380000000192126],[-107.70999999960927,41.319999999889035],[-109.12000000034125,41.60999999973747],[-109.63000000030019,42.119999999803824],[-110.48999999956166,42.179999999935056],[-111.88000000043616,40.64000000010725],[-112.78000000031089,37.80000000005754],[-113.09999999982716,37.579999999975264],[-113.21999999987034,35.69999999965041],[-112.74999999962634,34.27999999999949],[-111.30000000007773,33.339999999869804]]],[[[-84.83000000005931,44.68999999997806],[-81.9116005465143,43.67103341118806],[-81.96500000026349,44.14399999986701],[-82.23199999988796,45.49900000017895],[-83.29200000041914,45.79899999978996],[-83.2880000000883,45.85099999991888],[-83.25099999972315,46.092999999958195],[-83.41399999972941,46.2320000000626],[-83.60099999992397,46.22899999990457],[-83.74299999999003,46.25199999986731],[-83.81399999957392,46.26400000015643],[-83.87999999964259,46.32599999988639],[-84.0339999998028,46.68699999985988],[-84.44399999957605,46.69899999976423],[-84.6529999997935,46.98899999971769],[-85.67700000004223,47.45300000029071],[-87.08000000019527,48.02699999973062],[-88.42500000004298,48.56000000012443],[-89.52099999995828,48.207000000246516],[-90.01100000005975,48.26599999997149],[-90.51300000025539,48.26199999987784],[-90.77699999963174,48.45299999976709],[-91.47700000003336,48.338000000040466],[-91.93999999969841,48.52099999984098],[-92.50000000019938,48.696999999814516],[-93.22299999980828,48.833999999833296],[-93.51300000043666,48.78599999994601],[-93.80500000033214,48.85699999997146],[-94.34193180242777,48.952555659576355],[-92.22000000039806,47.030000000102746],[-84.83000000005931,44.68999999997806]]],[[[-83.4899999997268,29.499999999755577],[-83.86313687723137,29.600459928582467],[-83.62500000011228,29.28999999978877],[-83.42100000030834,29.092999999968058],[-83.27299999974605,28.82700000000521],[-83.02599999997905,28.7529999998476],[-82.98999999969661,28.55099999985176],[-83.0139999998849,28.46500000021246],[-83.15599999995098,28.372999999943726],[-83.1849999996545,28.105000000322374],[-83.1830000003874,27.781000000113178],[-83.07000000002483,27.615000000386566],[-83.10500000022458,27.532000000110262],[-82.71899999974133,26.891999999910425],[-82.53499999979488,26.480000000350312],[-82.32400000031033,26.17100000015675],[-82.1429999997137,26.089999999620844],[-81.93400000039458,25.609999999746137],[-82.63199999973247,25.45300000034019],[-82.51000000042218,25.287999999999982],[-82.36800000035612,25.133999999702585],[-82.3130000002989,25.016999999980946],[-83.1629999996316,25.012000000332282],[-83.23800000044461,24.797999999849537],[-83.28000000032497,24.513000000204464],[-83.2880000000883,24.221000000253113],[-82.8159999996789,24.168999999757567],[-81.78200000039976,24.20799999985128],[-81.05400000037733,24.36100000028893],[-80.63499999985973,24.487000000098494],[-80.33099999987012,24.705000000229205],[-80.14299999959286,24.85900000030483],[-79.96500000014264,25.157999999906814],[-79.81200000006513,25.576000000267165],[-79.76599999985393,26.22799999994933],[-79.69999999978528,26.7770000003825],[-79.78799999987683,27.14799999977349],[-80.27100000029768,28.231999999937326],[-80.19699999956737,28.551999999931745],[-80.34899999956217,28.82999999997439],[-80.76499999983166,29.498000000270107],[-80.98900000039137,30.127999999644274],[-81.0490178557767,30.491672550723482],[-82.06999999996441,29.71999999988818],[-83.4899999997268,29.499999999755577]]],[[[-72.53999999960415,44.869999999952164],[-71.95869747711805,45.17241171717472],[-74.8810000000798,45.18900000019482],[-75.60299999960598,44.87399999974514],[-75.97699999999509,44.60399999969299],[-76.55700000035353,44.255999999985036],[-76.95500000003264,43.790999999677865],[-77.31899999959468,43.7890000001017],[-78.63200000038907,43.794000000002],[-79.37299999969005,43.552999999821935],[-79.29455235374981,43.172431667964155],[-77.15999999991926,43.189999999826036],[-74.85000000021087,43.81000000016111],[-72.53999999960415,44.869999999952164]]],[[[-90.31999999956459,29.639999999647582],[-90.95996630997737,28.72435589507035],[-90.7449999996801,28.71099999971709],[-90.53999999979348,28.71099999971709],[-90.10200000039944,28.755000000345362],[-89.82800000019604,28.916000000310095],[-89.71199999958534,28.693000000119145],[-89.3989999997497,28.577000000217446],[-89.17500000008829,28.630000000363218],[-88.93700000016734,28.69100000001952],[-88.61899999991817,29.022000000354463],[-88.5810000003686,29.248999999949675],[-88.69499999991557,29.394000000151312],[-88.4319999997236,29.714000000047285],[-88.40600000026822,29.862999999612942],[-87.77099999985255,29.877999999637126],[-86.46200000028728,30.067999999727114],[-85.98500000036266,29.875999999662792],[-85.76700000029918,29.695999999639433],[-85.67499999987682,29.43600000019386],[-85.33599999968743,29.334999999855967],[-85.01800000033657,29.24600000015382],[-84.46699999968165,29.438000000111135],[-84.17100000035367,29.625999999889302],[-84.12789734541151,29.671741592949093],[-86.86999999989513,30.409999999720192],[-89.11000000010235,30.240000000052735],[-90.31999999956459,29.639999999647582]]],[[[-98.16000000028986,26.890000000292428],[-98.25796772114704,25.948421342814857],[-98.21799999969689,25.93399999980332],[-97.68000000011712,25.83699999996434],[-97.2299999997306,25.659000000309668],[-97.075000000386,25.799000000337355],[-96.74900000037347,25.948000000296993],[-96.87600000009729,26.595000000233807],[-97.01700000008064,27.08099999970779],[-96.79599999976905,27.57900000009326],[-96.42699999979347,27.939999999852898],[-96.14699999999215,28.054999999794394],[-96.04399999955831,28.182000000113582],[-95.66614540643849,28.34948149515603],[-97.52000000035899,27.809999999967392],[-98.16000000028986,26.890000000292428]]],[[[-95.00164083969221,49.55027861352492],[-94.41224354158705,49.016260926772716],[-94.57899999966743,49.54099999975863],[-95.00164083969221,49.55027861352492]]],[[[-71.62452227172582,45.346260089454525],[-71.3452618189653,45.49154009458884],[-71.57100000031096,45.45599999993904],[-71.62452227172582,45.346260089454525]]]]},"properties":{"objectid":1,"dn":2,"valid":"202610071200","expire":"202610081200","idp_source":"day3otlk_20261005_1930_cat","idp_filedate":1791228917000,"idp_ingestdate":1791228934000,"st_area(shape)":2315300487404.7593,"st_perimeter(shape)":18061407.646560058,"issue":"202610051929","label":"TSTM","label2":"General Thunderstorms Risk","stroke":"#55BB55","fill":"#C1E9C1","day":3,"category":"Thunderstorm","risk":"TSTM"}}]}