{"type":"FeatureCollection","features":[{"type":"Feature","id":1,"geometry":{"type":"MultiPolygon","coordinates":[[[[-110.819999999905,47.52000000019649],[-110.95999999980565,47.400000000074684],[-110.93999999994817,47.28999999976699],[-110.70999999979054,47.009999999810866],[-110.30999999994604,46.81999999996169],[-110.2500000003736,46.79000000029372],[-109.96999999967396,46.740000000274634],[-109.56999999982946,46.699999999843776],[-108.91999999996983,46.740000000274634],[-108.41999999993963,46.849999999819964],[-107.15000000000661,47.3600000000117],[-106.59000000040396,47.899999999965864],[-106.39000000003257,48.11000000000518],[-106.23000000027442,48.390000000254375],[-106.26000000006063,48.62999999992271],[-106.50000000014701,48.88000000014161],[-107.29999999983602,49.10000000020972],[-108.04999999988134,49.05999999982573],[-108.66999999995474,48.78000000020956],[-109.04000000001302,48.48000000016992],[-109.28000000009939,48.2599999999618],[-109.51000000025701,48.140000000110184],[-109.82999999977329,47.989999999942754],[-110.08999999971714,47.899999999965864],[-110.30999999994604,47.7699999998906],[-110.59999999967609,47.6200000002402],[-110.819999999905,47.52000000019649]]],[[[-121.2899999998549,37.31999999996013],[-121.10000000031054,37.360000000154116],[-120.83000000043796,37.56999999971548],[-120.65999999985277,38.02000000007207],[-120.68999999963899,38.67999999970667],[-121.00000000012486,39.330000000220004],[-121.31999999964111,39.75999999973906],[-121.63000000012698,40.200000000262946],[-121.8600000002846,40.529999999713176],[-122.04999999982897,40.6300000000695],[-122.24000000027165,40.619999999660095],[-122.61000000032995,40.619999999660095],[-122.80999999980303,40.5499999998105],[-122.89000000013125,40.420000000103485],[-122.91999999991747,40.299999999963504],[-122.69999999968859,40.070000000189495],[-122.60000000040118,39.65000000016743],[-122.55999999978793,39.38000000008843],[-122.45999999960222,38.92999999972152],[-122.09000000044223,38.51999999994828],[-121.91999999985703,38.3700000003003],[-121.69999999962816,38.2299999998923],[-121.60000000034077,38.13999999992485],[-121.56999999965623,37.969999999754826],[-121.55999999972748,37.78999999999337],[-121.54999999979876,37.52000000016144],[-121.41999999982683,37.37000000029565],[-121.2899999998549,37.31999999996013]]],[[[-119.3999999998485,34.81000000011931],[-119.74000000012059,34.989999999753834],[-120.03999999977938,35.10000000013902],[-120.20000000043584,34.94000000018777],[-120.1899999996088,34.86999999990168],[-120.21000000036457,34.620000000285216],[-120.17999999968004,34.48999999992031],[-119.89999999987873,34.43999999966775],[-119.51999999989168,34.4199999998875],[-119.17999999961962,34.449999999687535],[-118.87000000003206,34.449999999687535],[-118.38999999985936,34.37000000036757],[-118.19000000038625,34.409999999826894],[-118.11999999998677,34.479999999837375],[-118.07000000034307,34.54999999966004],[-118.11000000005802,34.66999999978102],[-118.31000000042944,34.78000000014255],[-118.41999999964557,34.85999999966324],[-118.61000000008822,34.86999999990168],[-118.80999999956133,34.84999999991429],[-119.0499999996477,34.800000000019],[-119.3999999998485,34.81000000011931]]]]},"properties":{"objectid":1,"dn":5,"valid":"202609291200","expire":"202609301200","idp_source":"firewx_day2_20260928_2000","idp_filedate":1790624116000,"idp_ingestdate":1790624131000,"st_area(shape)":201369773853.51422,"st_perimeter(shape)":3156092.0661651245,"day":2,"outlook_type":"fire","category":"Elevated","risk":"ELEV","fill":"#E69800","stroke":"#9B6500"}}]}