{"type":"FeatureCollection","features":[{"type":"Feature","id":1,"geometry":{"type":"MultiPolygon","coordinates":[[[[-103.53073492675723,28.926906884694922],[-103.10000000012123,30.87000000007239],[-102.47000000011909,32.03000000029521],[-98.56000000013435,36.869999999998115],[-98.0500000001754,37.4100000000022],[-97.83999999987525,37.78999999999337],[-97.86999999966146,37.910000000043105],[-98.32000000004798,38.0600000002651],[-99.8899999996398,37.549999999829396],[-100.34000000002631,37.5299999997606],[-100.66000000044092,37.92000000002637],[-100.42000000035455,38.4400000002395],[-99.16000000035028,39.549999999738105],[-98.31000000011926,40.08000000026999],[-97.3299999999163,40.52000000011248],[-96.13000000038278,40.92999999982269],[-95.4399999999099,41.01000000016154],[-95.12000000039362,40.94999999979386],[-94.78000000012156,40.700000000080344],[-95.02000000020793,38.16999999970041],[-95.75000000039576,33.01000000019395],[-96.18999999995522,32.10000000002851],[-97.69000000004587,30.23000000009631],[-98.57000000006309,29.38999999990044],[-100.04648304206002,27.790476704803208],[-99.91700000007621,27.637000000091135],[-99.72400000028375,27.49599999960728],[-99.69699999984734,27.29100000032521],[-99.6120000000039,27.039000000354402],[-99.48899999971259,26.803999999878517],[-99.35699999957527,26.518999999824846],[-99.10300000012764,26.25400000027668],[-98.50900000040795,26.038999999961614],[-98.40711160495111,26.002236146300284],[-97.9499999999897,27.54999999994712],[-96.43000000004159,30.08000000008174],[-94.67999999993584,33.35999999992455],[-94.01000000021877,35.090000000148365],[-93.08999999958824,37.289999999803356],[-91.90999999991222,39.5700000000789],[-90.72000000030742,40.64000000010725],[-89.85000000021891,41.290000000039086],[-89.34000000025995,41.759999999894006],[-89.12999999995982,42.23999999970963],[-89.24000000007426,42.7499999999195],[-89.720000000247,43.180000000321606],[-90.64999999990792,43.499999999874056],[-92.14000000006982,43.70000000024505],[-95.55000000002434,43.16000000029917],[-97.90000000034601,42.17000000023658],[-101.68000000035882,40.56000000017173],[-103.60000000015145,39.68000000021066],[-105.89000000000236,37.73000000006289],[-106.34000000038887,36.29000000028829],[-105.91999999978857,35.00000000026277],[-104.45000000038247,34.46000000024018],[-103.56000000043649,34.50999999991579],[-102.55000000044731,34.46999999999355],[-102.18000000038903,34.09000000032339],[-102.26999999974768,33.409999999699714],[-102.98000000007804,32.18000000011872],[-103.65999999972388,31.080000000338703],[-104.55195999246575,29.501309748121074],[-104.190999999623,29.275000000208898],[-103.53073492675723,28.926906884694922]]],[[[-83.45000000001185,29.230000000386223],[-83.6553453949387,29.329561403132864],[-83.62500000011228,29.28999999978877],[-83.42100000030834,29.092999999968058],[-83.27299999974605,28.82700000000521],[-83.02599999997905,28.7529999998476],[-82.98999999969661,28.55099999985176],[-83.0139999998849,28.46500000021246],[-83.15599999995098,28.372999999943726],[-83.1849999996545,28.105000000322374],[-83.1830000003874,27.781000000113178],[-83.07000000002483,27.615000000386566],[-83.10500000022458,27.532000000110262],[-82.71899999974133,26.891999999910425],[-82.53499999979488,26.480000000350312],[-82.32400000031033,26.17100000015675],[-82.1429999997137,26.089999999620844],[-81.93400000039458,25.609999999746137],[-82.63199999973247,25.45300000034019],[-82.51000000042218,25.287999999999982],[-82.36800000035612,25.133999999702585],[-82.3130000002989,25.016999999980946],[-83.1629999996316,25.012000000332282],[-83.23800000044461,24.797999999849537],[-83.28000000032497,24.513000000204464],[-83.2880000000883,24.221000000253113],[-82.8159999996789,24.168999999757567],[-81.78200000039976,24.20799999985128],[-81.05400000037733,24.36100000028893],[-80.63499999985973,24.487000000098494],[-80.33099999987012,24.705000000229205],[-80.14299999959286,24.85900000030483],[-79.96500000014264,25.157999999906814],[-79.81200000006513,25.576000000267165],[-79.76599999985393,26.22799999994933],[-79.69999999978528,26.7770000003825],[-79.78799999987683,27.14799999977349],[-80.27100000029768,28.231999999937326],[-80.19699999956737,28.551999999931745],[-80.31232467998511,28.76292276992333],[-81.920000000135,28.820000000208427],[-83.45000000001185,29.230000000386223]]],[[[-86.2699999996792,30.270000000187054],[-86.4462778784241,30.06167159846554],[-85.98500000036266,29.875999999662792],[-85.76700000029918,29.695999999639433],[-85.67499999987682,29.43600000019386],[-85.33599999968743,29.334999999855967],[-85.01800000033657,29.24600000015382],[-84.46699999968165,29.438000000111135],[-84.21245082237161,29.599673126320507],[-85.43000000027523,30.19000000038274],[-86.2699999996792,30.270000000187054]]]]},"properties":{"objectid":1,"dn":2,"valid":"202610010100","expire":"202610011200","idp_source":"day1otlk_20261001_0100_cat","idp_filedate":1790815216000,"idp_ingestdate":1790815245000,"st_area(shape)":1603347418879.369,"st_perimeter(shape)":13890055.968646536,"issue":"202610010035","label":"TSTM","label2":"General Thunderstorms Risk","stroke":"#55BB55","fill":"#C1E9C1","day":1,"category":"Thunderstorm","risk":"TSTM"}},{"type":"Feature","id":2,"geometry":{"type":"Polygon","coordinates":[[[-100.04648304206002,27.790476704803208],[-98.57000000006309,29.38999999990044],[-97.69000000004587,30.23000000009631],[-96.18999999995522,32.10000000002851],[-95.75000000039576,33.01000000019395],[-95.02000000020793,38.16999999970041],[-94.78000000012156,40.700000000080344],[-95.12000000039362,40.94999999979386],[-95.4399999999099,41.01000000016154],[-96.13000000038278,40.92999999982269],[-97.3299999999163,40.52000000011248],[-98.31000000011926,40.08000000026999],[-99.16000000035028,39.549999999738105],[-100.42000000035455,38.4400000002395],[-100.66000000044092,37.92000000002637],[-100.34000000002631,37.5299999997606],[-99.8899999996398,37.549999999829396],[-98.32000000004798,38.0600000002651],[-97.86999999966146,37.910000000043105],[-97.83999999987525,37.78999999999337],[-98.0500000001754,37.4100000000022],[-98.56000000013435,36.869999999998115],[-102.47000000011909,32.03000000029521],[-103.10000000012123,30.87000000007239],[-103.53073492675723,28.926906884694922],[-103.41899999955479,28.867999999646045],[-102.96200000038598,28.8600000000931],[-102.73300000031105,29.098000000267003],[-102.61300000026787,29.28300000037215],[-102.48599999964574,29.57799999979222],[-102.3000000004322,29.645000000054655],[-102.12500000033181,29.65100000003175],[-101.8520000002111,29.613999999618542],[-101.61599999955725,29.59399999994979],[-101.45000000020119,29.51799999984437],[-101.1609999996555,29.26799999972659],[-100.9109999996404,29.059000000061793],[-100.75400000013039,28.844000000126155],[-100.59599999963933,28.593000000275865],[-100.4100000004258,28.265000000035887],[-100.22999999991188,28.00800000026225],[-100.04648304206002,27.790476704803208]],[[-102.5700000003048,31.319999999970165],[-99.78000000042367,34.55999999963185],[-99.20999999999398,35.06999999966116],[-98.73999999974997,35.11000000013389],[-97.95999999991844,34.7700000000884],[-97.93000000013222,34.26999999999376],[-98.0999999998191,33.60000000029325],[-99.61999999976722,30.499999999722718],[-100.24999999976936,29.499999999755577],[-100.66000000044092,29.33000000034137],[-101.68000000035882,29.7800000002472],[-102.53999999962026,30.639999999939825],[-102.5700000003048,31.319999999970165]],[[-99.06000000016456,38.920000000193404],[-97.90000000034601,39.89000000031212],[-97.36999999963126,40.16000000009341],[-96.92000000014308,40.08999999985134],[-96.74999999955787,39.979999999983846],[-96.7299999997004,39.65000000016743],[-97.05000000011498,39.21999999970192],[-98.2000000000048,38.62999999991078],[-98.8699999997219,38.619999999960946],[-99.06000000016456,38.920000000193404]]]},"properties":{"objectid":2,"dn":3,"valid":"202610010100","expire":"202610011200","idp_source":"day1otlk_20261001_0100_cat","idp_filedate":1790815216000,"idp_ingestdate":1790815245000,"st_area(shape)":625146134114.219,"st_perimeter(shape)":7727012.77577167,"issue":"202610010035","label":"MRGL","label2":"Marginal Risk","stroke":"#005500","fill":"#66A366","day":1,"category":"Marginal","risk":"MRGL"}},{"type":"Feature","id":3,"geometry":{"type":"MultiPolygon","coordinates":[[[[-102.5700000003048,31.319999999970165],[-102.53999999962026,30.639999999939825],[-101.68000000035882,29.7800000002472],[-100.66000000044092,29.33000000034137],[-100.24999999976936,29.499999999755577],[-99.61999999976722,30.499999999722718],[-98.0999999998191,33.60000000029325],[-97.93000000013222,34.26999999999376],[-97.95999999991844,34.7700000000884],[-98.73999999974997,35.11000000013389],[-99.20999999999398,35.06999999966116],[-99.78000000042367,34.55999999963185],[-102.5700000003048,31.319999999970165]]],[[[-99.06000000016456,38.920000000193404],[-98.8699999997219,38.619999999960946],[-98.2000000000048,38.62999999991078],[-97.05000000011498,39.21999999970192],[-96.7299999997004,39.65000000016743],[-96.74999999955787,39.979999999983846],[-96.92000000014308,40.08999999985134],[-97.36999999963126,40.16000000009341],[-97.90000000034601,39.89000000031212],[-99.06000000016456,38.920000000193404]]]]},"properties":{"objectid":3,"dn":4,"valid":"202610010100","expire":"202610011200","idp_source":"day1otlk_20261001_0100_cat","idp_filedate":1790815216000,"idp_ingestdate":1790815245000,"st_area(shape)":236984435713.71298,"st_perimeter(shape)":2666796.724871358,"issue":"202610010035","label":"SLGT","label2":"Slight Risk","stroke":"#DDAA00","fill":"#FFE066","day":1,"category":"Slight","risk":"SLGT"}}]}