{"type":"FeatureCollection","features":[{"type":"Feature","id":1,"geometry":{"type":"MultiPolygon","coordinates":[[[[-88.95772346812035,28.991525069643895],[-89.02483469228032,28.67381002337901],[-88.8070511152334,28.855861197579433],[-88.68601148952202,30.166020634592787],[-88.94732334149607,31.22291608540649],[-89.33616237131505,31.964001325775683],[-89.47235100631478,32.467694597954974],[-89.50639832159617,32.87663114515897],[-89.41709920309353,33.59747391755655],[-89.12285566167428,34.03888577244447],[-88.38655809584898,34.50764516900871],[-87.77179318080738,34.70723620111462],[-87.06140340686514,34.67452952553673],[-86.52891440626345,34.4674910472539],[-85.70567836604309,33.835339625964814],[-84.543601311269,33.44780245805833],[-83.98919060690626,33.00240838812857],[-83.71613635842387,32.483905654915354],[-83.35463518362302,31.27449676721586],[-83.299186693372,30.768785249294545],[-83.46871926997214,29.59406180660834],[-83.60280052289232,29.287402469549974],[-83.32023214896387,28.98850924765848],[-83.2808885706849,28.84736268217743],[-83.20532557861534,29.071280484850266],[-82.72405259741303,29.674224416609658],[-82.44498811662334,29.833944425844287],[-82.17890743489431,29.858005093235274],[-81.42726913773949,29.519740798104102],[-80.3618906954302,28.781173462009903],[-80.9197970940081,29.795939757574946],[-81.12021116652151,30.77425779172667],[-80.74062728863198,31.69928348370764],[-80.49445341643118,31.950699855502915],[-79.01726862400906,32.90394897465009],[-79.11891524778864,32.960487894134864],[-80.08911460937723,33.007778050346126],[-80.92150065911291,32.855250753066414],[-81.8482476210765,32.79727463282425],[-82.2557159393087,33.01094511968905],[-82.57728240574606,33.535338238111976],[-82.9222051728768,33.87957839112246],[-83.85231014337363,34.398273807208625],[-84.98344444701355,34.60672929611892],[-85.83060126589561,34.97186274412254],[-86.63854763862042,35.19489498701743],[-87.68165037626802,35.2442287588237],[-88.63120117322862,35.01338554516073],[-89.48182553761639,34.50251509943931],[-89.88258805262689,34.1095556984428],[-90.119838023066,33.665255575619355],[-90.16241805254889,32.671196466227116],[-90.07839210495118,32.12468957736604],[-89.83552861530222,31.572363198234303],[-89.23562299747995,30.77892262703482],[-88.99954767398783,30.223881691504538],[-88.95772346812035,28.991525069643895]]],[[[-84.0898561823607,29.699461744752707],[-83.98540285512087,29.69210892223128],[-83.62044558743587,29.30606694445995],[-83.88239405748547,29.669559334709106],[-84.08704660249494,29.729718412482345],[-84.48379788284366,29.408896649583703],[-84.91634942935963,29.254848123733254],[-85.17667708351514,29.271551718695044],[-85.68679016879196,29.439989034013482],[-85.75519410188343,29.655310538982206],[-85.96846470463967,29.867337853731602],[-86.47898434226124,30.078445253764748],[-87.70330473601061,29.866833646693504],[-88.1275153236039,29.874977614589785],[-88.17616804705246,29.871227809583086],[-88.17589532841369,29.875906410686202],[-88.38562995559911,29.879932881924184],[-88.44782733945938,29.700537850848143],[-88.72652035340438,29.392857514995278],[-88.62702245936022,29.29759902149823],[-88.6417173325432,29.024500470112784],[-88.77715115992206,28.880855377951157],[-88.60702212892272,29.02307082960058],[-88.59224730837441,29.296166584118435],[-88.69171595866281,29.391447512529925],[-88.41293545599568,29.699066139721225],[-88.3873361887003,29.84962085209827],[-87.70401077768796,29.85546984086802],[-86.47981019314633,30.067091170277],[-85.96933839171196,29.855982821008133],[-85.76825854540213,29.65608648678451],[-85.68768780045814,29.428628559040355],[-85.17762244806228,29.26019167111396],[-84.91731966466371,29.2434894296003],[-84.48481097587162,29.397543072190366],[-84.0898561823607,29.699461744752707]]]]},"properties":{"objectid":1,"product":"Day 2 Excessive Rainfall Potential Forecast","valid_time":"12Z 10/09/26 - 12Z 10/10/26","outlook":"Marginal (At Least 5%)","issue_time":"2026-10-08 20:31:00","start_time":"2026-10-09 12:00:00","end_time":"2026-10-10 12:00:00","idp_source":"98e0821","idp_filedate":1791492478000,"idp_ingestdate":1791492541000,"st_area(shape)":279765670440.1847,"st_perimeter(shape)":6722846.491464252,"dn":1,"snippet":"12Z 10/09/26 - 12Z 10/10/26","day":2,"category":"Marginal","risk":"MRGL","probability":"At Least 5%","fill":"#38A800","stroke":"#00734C"}},{"type":"Feature","id":2,"geometry":{"type":"Polygon","coordinates":[[[-80.27071594671662,28.68167854775415],[-80.26865017010948,28.681480858702308],[-80.2695702614544,28.682486338642757],[-80.27071594671662,28.68167854775415]]]},"properties":{"objectid":2,"product":"Day 2 Excessive Rainfall Potential Forecast","valid_time":"12Z 10/09/26 - 12Z 10/10/26","outlook":"Marginal (At Least 5%)","issue_time":"2026-10-08 20:31:00","start_time":"2026-10-09 12:00:00","end_time":"2026-10-10 12:00:00","idp_source":"98e0821","idp_filedate":1791492478000,"idp_ingestdate":1791492541000,"st_area(shape)":13385.113692508057,"st_perimeter(shape)":558.5575004808741,"dn":1,"snippet":"12Z 10/09/26 - 12Z 10/10/26","day":2,"category":"Marginal","risk":"MRGL","probability":"At Least 5%","fill":"#38A800","stroke":"#00734C"}},{"type":"Feature","id":3,"geometry":{"type":"Polygon","coordinates":[[[-80.31674476757708,28.731936582456697],[-80.31467804055237,28.73173952005331],[-80.31559891073664,28.73274466754851],[-80.31674476757708,28.731936582456697]]]},"properties":{"objectid":3,"product":"Day 2 Excessive Rainfall Potential Forecast","valid_time":"12Z 10/09/26 - 12Z 10/10/26","outlook":"Marginal (At Least 5%)","issue_time":"2026-10-08 20:31:00","start_time":"2026-10-09 12:00:00","end_time":"2026-10-10 12:00:00","idp_source":"98e0821","idp_filedate":1791492478000,"idp_ingestdate":1791492541000,"st_area(shape)":13396.432378395657,"st_perimeter(shape)":558.7936976940958,"dn":1,"snippet":"12Z 10/09/26 - 12Z 10/10/26","day":2,"category":"Marginal","risk":"MRGL","probability":"At Least 5%","fill":"#38A800","stroke":"#00734C"}},{"type":"Feature","id":5,"geometry":{"type":"Polygon","coordinates":[[[-85.1743136725965,29.299951835534138],[-84.91392384244689,29.283244859026357],[-84.6977355044613,29.36041717086413],[-84.19972674153091,29.646518526884975],[-84.00483499395466,30.04393481697834],[-83.96207939593599,30.497357307546693],[-84.08588544644688,30.870872891206027],[-84.33324785354895,31.0702951336975],[-84.5934870191574,31.13321101172893],[-85.49677901845997,31.144538734462824],[-86.07558964219572,31.22376701584924],[-86.53919940480091,31.43118861091964],[-87.40615134118033,32.02027477835918],[-87.88658571991208,32.04238841705914],[-88.17801049259852,31.646192633877167],[-88.24438319110214,30.51195635209259],[-88.1549733282913,30.234832186258103],[-88.17616804705246,29.871227809583086],[-88.1275153236039,29.874977614589785],[-87.43658619114107,29.928229503495015],[-86.47691971549766,30.106830461051494],[-85.96628048785726,29.895725436377052],[-85.72253299218835,29.653370669843024],[-85.68454609187226,29.46839022093324],[-85.1743136725965,29.299951835534138]]]},"properties":{"objectid":5,"product":"Day 2 Excessive Rainfall Potential Forecast","valid_time":"12Z 10/09/26 - 12Z 10/10/26","outlook":"Moderate (At Least 40%)","issue_time":"2026-10-08 20:31:00","start_time":"2026-10-09 12:00:00","end_time":"2026-10-10 12:00:00","idp_source":"98e0821","idp_filedate":1791492478000,"idp_ingestdate":1791492541000,"st_area(shape)":101218071304.32266,"st_perimeter(shape)":1428627.4674597401,"dn":3,"snippet":"12Z 10/09/26 - 12Z 10/10/26","day":2,"category":"Moderate","risk":"MDT","probability":"At Least 40%","fill":"#FF0000","stroke":"#A80000"}},{"type":"Feature","id":4,"geometry":{"type":"Polygon","coordinates":[[[-88.38562995559911,29.879932881924184],[-88.17589532841369,29.875906410686202],[-88.1549733282913,30.234832186258103],[-88.24438319110214,30.51195635209259],[-88.17801049259852,31.646192633877167],[-87.88658571991208,32.04238841705914],[-87.40615134118033,32.02027477835918],[-86.53919940480091,31.43118861091964],[-86.07558964219572,31.22376701584924],[-85.49677901845997,31.144538734462824],[-84.5934870191574,31.13321101172893],[-84.33324785354895,31.0702951336975],[-84.08588544644688,30.870872891206027],[-83.96207939593599,30.497357307546693],[-84.00483499395466,30.04393481697834],[-84.19972674153091,29.646518526884975],[-84.6977355044613,29.36041717086413],[-84.91392384244689,29.283244859026357],[-85.1743136725965,29.299951835534138],[-85.68454609187226,29.46839022093324],[-85.72253299218835,29.653370669843024],[-85.96628048785726,29.895725436377052],[-86.47691971549766,30.106830461051494],[-87.43658619114107,29.928229503495015],[-88.1275153236039,29.874977614589785],[-87.70330473601061,29.866833646693504],[-86.47898434226124,30.078445253764748],[-85.96846470463967,29.867337853731602],[-85.75519410188343,29.655310538982206],[-85.68679016879196,29.439989034013482],[-85.17667708351514,29.271551718695044],[-84.91634942935963,29.254848123733254],[-84.48379788284366,29.408896649583703],[-84.08704660249494,29.729718412482345],[-83.88239405748547,29.669559334709106],[-83.60438448091033,29.283779774929876],[-83.46871926997214,29.59406180660834],[-83.299186693372,30.768785249294545],[-83.35463518362302,31.27449676721586],[-83.71613635842387,32.483905654915354],[-83.98919060690626,33.00240838812857],[-84.543601311269,33.44780245805833],[-85.70567836604309,33.835339625964814],[-86.52891440626345,34.4674910472539],[-87.06140340686514,34.67452952553673],[-87.77179318080738,34.70723620111462],[-88.38655809584898,34.50764516900871],[-89.12285566167428,34.03888577244447],[-89.41709920309353,33.59747391755655],[-89.50639832159617,32.87663114515897],[-89.47235100631478,32.467694597954974],[-89.33616237131505,31.964001325775683],[-88.94732334149607,31.22291608540649],[-88.68601148952202,30.166020634592787],[-88.80773924180903,28.84841276036899],[-88.6417173325432,29.024500470112784],[-88.62702245936022,29.29759902149823],[-88.72652035340438,29.392857514995278],[-88.44782733945938,29.700537850848143],[-88.38562995559911,29.879932881924184]]]},"properties":{"objectid":4,"product":"Day 2 Excessive Rainfall Potential Forecast","valid_time":"12Z 10/09/26 - 12Z 10/10/26","outlook":"Slight (At Least 15%)","issue_time":"2026-10-08 20:31:00","start_time":"2026-10-09 12:00:00","end_time":"2026-10-10 12:00:00","idp_source":"98e0821","idp_filedate":1791492478000,"idp_ingestdate":1791492541000,"st_area(shape)":257213527915.51193,"st_perimeter(shape)":4071247.684806711,"dn":2,"snippet":"12Z 10/09/26 - 12Z 10/10/26","day":2,"category":"Slight","risk":"SLGT","probability":"At Least 15%","fill":"#FFFF00","stroke":"#E6C700"}}]}