{"type":"FeatureCollection","features":[{"type":"Feature","id":1,"geometry":{"type":"Polygon","coordinates":[[[-105.06321323117928,30.426022502751053],[-104.75781402967615,29.715318761685413],[-104.1982935876031,29.291933467613234],[-103.80855702583092,29.679675767674883],[-103.15707105977778,30.125533621337976],[-101.18465822321755,30.67107871220423],[-99.9385983768103,31.21519678148187],[-99.62753104481627,31.406316907875496],[-99.06099366532791,31.967418025871726],[-98.56055835069415,33.0665942810478],[-97.88587989712958,36.23191302261765],[-97.35799859816527,37.49129564499738],[-96.30528083899384,38.65848967939098],[-93.84150186061774,40.73345414038583],[-93.01221070197026,41.689472852476925],[-92.70215568685977,42.47014410251436],[-92.67793329524817,43.50989998298355],[-92.78530006646521,44.0286664796947],[-92.96149020316305,44.24659785935821],[-93.19978894771322,44.33495788676965],[-94.04065920532003,44.29811800955614],[-95.83580004881439,43.695964912600864],[-98.87305211932447,42.052679095395945],[-101.44036508997695,40.88566792471285],[-103.38785373329637,39.127278810118284],[-103.77139729602511,38.93096920097022],[-104.11210040138185,38.91346129652466],[-104.40777087261246,39.03088734826709],[-105.0907742456803,39.6124474683922],[-105.8229162418322,40.012208130640936],[-106.39109520267075,39.932239435677275],[-107.41517643487568,39.33106633453186],[-108.2401742600144,39.04821370681904],[-111.14588828003887,38.936101259940386],[-111.90818451311802,38.684750569181084],[-112.73481330691017,38.153990648605536],[-113.55615034275587,37.30189982271404],[-113.99370962058667,36.57670346026332],[-114.26905724553154,35.911909589819345],[-114.39297915625623,35.03550737765728],[-114.1453730784384,33.927079594114176],[-113.64339251868384,32.890804402995336],[-113.54247216933673,31.942295051772152],[-111.28118954572622,31.199311045891502],[-110.73554955970798,31.1174864166273],[-108.97155490970849,31.091502685553927],[-108.0742776953751,31.16836971394291],[-107.96142231029856,31.58814530303025],[-106.56818604776464,31.559114362490494],[-106.54753895098382,31.41836995993539],[-106.03376172479966,31.181620130640457],[-105.06321323117928,30.426022502751053]],[[-103.76003812081697,31.141284614969724],[-104.26393446367906,30.793759800835307],[-104.89183883875211,30.071542788526706],[-105.0281596859987,30.428268170114396],[-105.99849963392924,31.184078729241786],[-106.09396013616721,31.225993300208167],[-106.10826378046754,31.22186103588104],[-106.25778884909107,31.297926822797898],[-106.534292618383,31.419333442787433],[-106.56932117153406,31.570418650418222],[-107.96269406961933,31.599438373711443],[-108.07555584890406,31.179671413705666],[-109.50587549342781,31.1003681788675],[-110.9566209733897,31.1714931678042],[-112.35427025646926,31.57341126060017],[-112.8986801820639,33.340452049729784],[-112.93068260297522,33.88360091086402],[-112.44832975517325,35.70568312604714],[-112.39712474013608,36.43396156127068],[-112.19168821202199,36.90587448405266],[-111.71946122710322,37.49326166809642],[-110.92911578648864,37.882926564717685],[-109.49632938256774,38.1890802015649],[-108.2368492852291,38.112029371840244],[-107.50579767674549,38.16678263308162],[-107.07567248250686,38.37589379975556],[-106.71016157053585,38.668297082979976],[-106.10636221858927,38.88591011055366],[-105.5215442542231,38.74451958208415],[-104.33325036465035,38.18975221982547],[-103.54359595576302,38.230719499010064],[-103.05580794745423,38.52105774975091],[-101.98238582839419,39.45383462868852],[-100.95447706430816,40.50609528602968],[-100.230107564184,41.05622546220726],[-99.20301099659073,41.52098632457619],[-97.69884320884051,42.029792848293646],[-96.12409517818753,42.82886966075182],[-95.1195287864164,43.22213081733116],[-94.46663430871014,43.22140467353036],[-94.22998145922018,43.0469735564608],[-94.05554110325356,42.69926663320672],[-94.06045295737816,42.17757279646593],[-94.35802132086911,41.5681804719613],[-94.59260039694927,41.306494926195896],[-95.86608038585133,40.33920023790422],[-97.84536875871292,38.9060587698567],[-98.34187175927586,38.40930103191361],[-98.71950118517816,37.8680359903001],[-98.86916830709251,37.329941467513024],[-98.8374227369788,36.4368114939028],[-98.70951590953524,35.946793292181695],[-98.72830670066351,34.86804824585552],[-99.12824796326484,33.821543917182844],[-99.98890259631486,32.39467838986306],[-100.39889289518136,31.97272296448978],[-101.0252086625565,31.67789572981285],[-102.1288862991005,31.405030687439105],[-103.2401895777845,31.3057053579268],[-103.76003812081697,31.141284614969724]]]},"properties":{"objectid":1,"product":"Day 3 Excessive Rainfall Potential Forecast","valid_time":"12Z 09/29/26 - 12Z 09/30/26","outlook":"Marginal (At Least 5%)","issue_time":"2026-09-27 08:07:00","start_time":"2026-09-29 12:00:00","end_time":"2026-09-30 12:00:00","idp_source":"99e2709","idp_filedate":1790497965000,"idp_ingestdate":1790497977000,"st_area(shape)":707290938521.75,"st_perimeter(shape)":13923659.458889188,"dn":1,"snippet":"12Z 09/29/26 - 12Z 09/30/26","day":3,"category":"Marginal","risk":"MRGL","probability":"At Least 5%","fill":"#38A800","stroke":"#00734C"}},{"type":"Feature","id":3,"geometry":{"type":"Polygon","coordinates":[[[-106.10826378046754,31.22186103588104],[-105.90086227929758,31.281778483538996],[-104.99435987813767,31.887604983513437],[-104.09270668259445,32.668158719144515],[-103.51603355875478,32.88111100166428],[-102.0239313579959,33.179411027950074],[-101.65699003614009,33.37593795344241],[-101.29611875821985,33.707044801265425],[-100.80285486517913,34.67301184972491],[-100.68241475263049,35.53217314272938],[-100.77510144681561,36.24706773972601],[-101.13819794871267,36.7717980504136],[-101.53893503511242,36.93571165460254],[-101.81788247799702,36.92471857501671],[-102.57989224911182,36.62373509418413],[-103.2924208425753,36.45575351247188],[-106.82888112095621,36.15406293006027],[-108.02743246492318,35.92995719270982],[-108.77583713248241,35.68947551244343],[-109.50329837869296,35.31146630199082],[-110.51512697130819,34.63097601112304],[-110.99412462679533,34.130979832319504],[-111.15213505223522,33.70639410591642],[-111.09428561316476,33.30270195351931],[-110.49808167774388,32.13091755382111],[-110.4191122426759,31.545105418164194],[-110.47636071331286,31.173922463687248],[-108.97633124219269,31.131038298008118],[-108.07875123182816,31.20792566157729],[-108.0615530512907,31.528752547182997],[-107.96587346881957,31.627671052612627],[-107.59456878169377,31.65755825809296],[-106.57215898005931,31.598679369203722],[-106.50117678508437,31.421742148779487],[-106.10826378046754,31.22186103588104]]]},"properties":{"objectid":3,"product":"Day 3 Excessive Rainfall Potential Forecast","valid_time":"12Z 09/29/26 - 12Z 09/30/26","outlook":"Moderate (At Least 40%)","issue_time":"2026-09-27 08:07:00","start_time":"2026-09-29 12:00:00","end_time":"2026-09-30 12:00:00","idp_source":"99e2709","idp_filedate":1790497965000,"idp_ingestdate":1790497977000,"st_area(shape)":602518523679.7693,"st_perimeter(shape)":3260403.3405701867,"dn":3,"snippet":"12Z 09/29/26 - 12Z 09/30/26","day":3,"category":"Moderate","risk":"MDT","probability":"At Least 40%","fill":"#FF0000","stroke":"#A80000"}},{"type":"Feature","id":2,"geometry":{"type":"Polygon","coordinates":[[[-106.534292618383,31.419333442787433],[-106.25778884909107,31.297926822797898],[-106.50117678508437,31.421742148779487],[-106.57215898005931,31.598679369203722],[-107.59456878169377,31.65755825809296],[-107.96587346881957,31.627671052612627],[-108.0615530512907,31.528752547182997],[-108.07875123182816,31.20792566157729],[-108.97633124219269,31.131038298008118],[-110.47636071331286,31.173922463687248],[-110.4191122426759,31.545105418164194],[-110.49808167774388,32.13091755382111],[-111.09428561316476,33.30270195351931],[-111.15213505223522,33.70639410591642],[-110.99412462679533,34.130979832319504],[-110.51512697130819,34.63097601112304],[-109.50329837869296,35.31146630199082],[-108.77583713248241,35.68947551244343],[-108.02743246492318,35.92995719270982],[-106.82888112095621,36.15406293006027],[-103.2924208425753,36.45575351247188],[-102.57989224911182,36.62373509418413],[-101.81788247799702,36.92471857501671],[-101.53893503511242,36.93571165460254],[-101.13819794871267,36.7717980504136],[-100.77510144681561,36.24706773972601],[-100.68241475263049,35.53217314272938],[-100.80285486517913,34.67301184972491],[-101.29611875821985,33.707044801265425],[-101.65699003614009,33.37593795344241],[-102.0239313579959,33.179411027950074],[-103.51603355875478,32.88111100166428],[-104.09270668259445,32.668158719144515],[-104.99435987813767,31.887604983513437],[-105.90086227929758,31.281778483538996],[-106.09396013616721,31.225993300208167],[-105.99849963392924,31.184078729241786],[-105.0281596859987,30.428268170114396],[-104.89183883875211,30.071542788526706],[-104.26393446367906,30.793759800835307],[-103.76003812081697,31.141284614969724],[-103.2401895777845,31.3057053579268],[-102.1288862991005,31.405030687439105],[-101.0252086625565,31.67789572981285],[-100.39889289518136,31.97272296448978],[-99.98890259631486,32.39467838986306],[-99.12824796326484,33.821543917182844],[-98.72830670066351,34.86804824585552],[-98.70951590953524,35.946793292181695],[-98.8374227369788,36.4368114939028],[-98.86916830709251,37.329941467513024],[-98.71950118517816,37.8680359903001],[-98.34187175927586,38.40930103191361],[-97.84536875871292,38.9060587698567],[-95.86608038585133,40.33920023790422],[-94.59260039694927,41.306494926195896],[-94.35802132086911,41.5681804719613],[-94.06045295737816,42.17757279646593],[-94.05554110325356,42.69926663320672],[-94.22998145922018,43.0469735564608],[-94.46663430871014,43.22140467353036],[-95.1195287864164,43.22213081733116],[-96.12409517818753,42.82886966075182],[-97.69884320884051,42.029792848293646],[-99.20301099659073,41.52098632457619],[-100.230107564184,41.05622546220726],[-100.95447706430816,40.50609528602968],[-101.98238582839419,39.45383462868852],[-103.05580794745423,38.52105774975091],[-103.54359595576302,38.230719499010064],[-104.33325036465035,38.18975221982547],[-105.5215442542231,38.74451958208415],[-106.10636221858927,38.88591011055366],[-106.71016157053585,38.668297082979976],[-107.07567248250686,38.37589379975556],[-107.50579767674549,38.16678263308162],[-108.2368492852291,38.112029371840244],[-109.49632938256774,38.1890802015649],[-110.92911578648864,37.882926564717685],[-111.71946122710322,37.49326166809642],[-112.19168821202199,36.90587448405266],[-112.39712474013608,36.43396156127068],[-112.44832975517325,35.70568312604714],[-112.93068260297522,33.88360091086402],[-112.8986801820639,33.340452049729784],[-112.35427025646926,31.57341126060017],[-110.9566209733897,31.1714931678042],[-109.50587549342781,31.1003681788675],[-108.07555584890406,31.179671413705666],[-107.96269406961933,31.599438373711443],[-106.56932117153406,31.570418650418222],[-106.534292618383,31.419333442787433]]]},"properties":{"objectid":2,"product":"Day 3 Excessive Rainfall Potential Forecast","valid_time":"12Z 09/29/26 - 12Z 09/30/26","outlook":"Slight (At Least 15%)","issue_time":"2026-09-27 08:07:00","start_time":"2026-09-29 12:00:00","end_time":"2026-09-30 12:00:00","idp_source":"99e2709","idp_filedate":1790497965000,"idp_ingestdate":1790497977000,"st_area(shape)":1149274081219.3264,"st_perimeter(shape)":9732394.306258773,"dn":2,"snippet":"12Z 09/29/26 - 12Z 09/30/26","day":3,"category":"Slight","risk":"SLGT","probability":"At Least 15%","fill":"#FFFF00","stroke":"#E6C700"}}]}