{"type":"FeatureCollection","features":[{"type":"Feature","id":1,"geometry":{"type":"Polygon","coordinates":[[[-82.31017778383202,26.20343696807591],[-81.97693832113193,26.45032257215752],[-81.190035295653,26.609905650931804],[-80.84519283521371,26.486145401292752],[-80.33144425091409,26.069500411924057],[-80.12932374946674,26.04964093358863],[-79.7852943290383,26.337894945505585],[-79.72225018600469,26.837099961286942],[-80.27895736511931,28.17783185031692],[-80.22831009697404,28.58587908406246],[-80.9207314434132,29.796939874815497],[-81.5832533375976,29.535126250169856],[-82.58287380753532,29.526742326146405],[-83.50576346205938,29.23107995188053],[-83.2808885706849,28.84736268217743],[-82.98013486204484,28.733616806160022],[-82.94683193931692,28.547912441378212],[-83.12008427062534,28.378261282752415],[-83.17876934053939,27.787444442758677],[-82.5364391224396,26.49845480114264],[-82.31017778383202,26.20343696807591]]]},"properties":{"objectid":1,"product":"Day 1 Excessive Rainfall Potential Forecast","valid_time":"12Z 10/08/26 - 12Z 10/09/26","outlook":"Marginal (At Least 5%)","issue_time":"2026-10-08 08:18:00","start_time":"2026-10-08 12:00:00","end_time":"2026-10-09 12:00:00","idp_source":"94e0809","idp_filedate":1791449883000,"idp_ingestdate":1791449892000,"st_area(shape)":128462320242.12602,"st_perimeter(shape)":1539390.7696202765,"dn":1,"snippet":"12Z 10/08/26 - 12Z 10/09/26","day":1,"category":"Marginal","risk":"MRGL","probability":"At Least 5%","fill":"#38A800","stroke":"#00734C"}}]}